{
 "type": "FeatureCollection",
 "name": "evacuation_1812",
 "crs": {
  "type": "name",
  "properties": {
   "name": "urn:ogc:def:crs:EPSG::26916"
  }
 },
 "_doc": "The 15 August 1812 evacuation route and the zone the accounts place the attack in (T-0470). GENERATED by tools/derive_evacuation_1812.py from data/terrain/1812_evacuation_readings.json and three committed lines - do not hand-edit; --check re-derives it. Coordinates are EPSG:26916 metres; local ENU is these minus data/datum.json origin_utm_e / origin_utm_n. Documentary geography only: no figure, camp or event is staged by it.",
 "address_date": "1812-08-15",
 "review_required": true,
 "review_note": "Held for review because this record locates a battle fought by Potawatomi and allied warriors, and every account it reads was written by the garrison's side or by settler historians - none by the Potawatomi. That is the Indigenous-history review T-0472 gates the 1812 interpretive scene on. This file is geography only: it places a route and an evidence-weighted zone, stages nobody, depicts nobody, and quotes the printed accounts verbatim (their words, not this project's) only where a distance or a landform is read from them.",
 "evidence_limit": "No survey, map or marker of 1812 places the attack. The one distance is the commander's 'about a mile and a half', reached through a compilation's OCR; the one named place is a tradition recorded seventy years on. Measured along the reconstructed shore they disagree by 1456.2 m: Eighteenth Street lies 1053.8 m beyond the south end of the band that rounds to Heald's figure. That disagreement is drawn, not resolved.",
 "disagreement": {
  "heald_m": 2414.016,
  "heald_band_m": [
   2011.7,
   2816.4
  ],
  "eighteenth_street_m": 3870.2,
  "eighteenth_street_minus_heald_m": 1456.2,
  "eighteenth_street_beyond_band_m": 1053.8,
  "eighteenth_street_miles": 2.4,
  "eighteenth_street_straight_m": 3489.6,
  "eighteenth_street_straight_miles": 2.17,
  "measure_note": "Distances are measured along the traced waterline, as the mouth readings measure Swearingen's half mile. The trace wiggles: between the outlet and the seam row it is 11 per cent longer than its chord, so a distance walked on the beach lies between the along and straight figures. Eighteenth Street is beyond Heald's band on either measure."
 },
 "features": [
  {
   "type": "Feature",
   "id": "evacuation_route_1812",
   "properties": {
    "kind": "route",
    "name": "The evacuation route of 15 August 1812, fort to Eighteenth Street",
    "length_m": 3880.4,
    "legs": {
     "outlet_m": 804.7,
     "seam_north_m": 2735.2,
     "seam_south_m": 2783.7,
     "seam_step_m": 48.5
    },
    "confidence": "inferred",
    "note": "From the fort anchor down the old channel's west bank to the natural outlet, then south along the waterline: the derived 1812 shore to the seam row, a step of the stated length across the two traces' disagreement there, and the carried Rees 1849 shore below it. This is the line every distance below is measured along, and it is drawn on the reconstructed 1812 shore, not on modern streets. Two printed narratives agree on the shape - down the river to its mouth, then along the beach - and neither is a witness. Where the line lies on the ground is the derived 1812 shore north of Twelfth Street (inferred) and the carried Rees 1849 shore south of it, below which the 1812 terrain spec writes every vertex conjectural.",
    "sources": [
     "moses_kirkland_history_of_chicago_v1",
     "quaife_1913"
    ],
    "provenance": {
     "derived_by": "tools/derive_evacuation_1812.py",
     "readings": "data/terrain/1812_evacuation_readings.json",
     "lines": [
      "data/terrain/epochs/e1830_natural/shoreline.geojson",
      "data/terrain/epochs/e1834_harbor_cut/lake_shore_below_twelfth.geojson",
      "data/traces/south_anchor_control.json"
     ],
     "rule": "generated — do not hand-edit; tools/derive_evacuation_1812.py --check re-derives this file"
    }
   },
   "geometry": {
    "type": "LineString",
    "coordinates": [
     [
      448190.65,
      4637652.24
     ],
     [
      448247.86,
      4637661.39
     ],
     [
      448284.93,
      4637652.01
     ],
     [
      448296.17,
      4637639.92
     ],
     [
      448297.65,
      4637626.19
     ],
     [
      448317.53,
      4637571.52
     ],
     [
      448316.91,
      4637558.47
     ],
     [
      448321.26,
      4637531.02
     ],
     [
      448329.86,
      4637494.24
     ],
     [
      448330.13,
      4637449.32
     ],
     [
      448327.51,
      4637420.28
     ],
     [
      448323.4,
      4637407.15
     ],
     [
      448324.25,
      4637381.8
     ],
     [
      448317.58,
      4637328.04
     ],
     [
      448319.03,
      4637319.38
     ],
     [
      448314.34,
      4637286.67
     ],
     [
      448314.45,
      4637267.11
     ],
     [
      448309.66,
      4637251.07
     ],
     [
      448313.27,
      4637230.85
     ],
     [
      448312.66,
      4637216.34
     ],
     [
      448303.08,
      4637183.54
     ],
     [
      448293.01,
      4637115.21
     ],
     [
      448282.73,
      4637080.94
     ],
     [
      448257.97,
      4637017.38
     ],
     [
      448246.89,
      4637001.94
     ],
     [
      448239.32,
      4636982.22
     ],
     [
      448236.54,
      4636969.05
     ],
     [
      448227.78,
      4636927.63
     ],
     [
      448228.53,
      4636918.95
     ],
     [
      448225.11,
      4636905.83
     ],
     [
      448228.69,
      4636891.41
     ],
     [
      448226.67,
      4636879.05
     ],
     [
      448219.74,
      4636870.21
     ],
     [
      448245.68,
      4636853.36
     ],
     [
      448252.13,
      4636824.51
     ],
     [
      448280.95,
      4636793.94
     ],
     [
      448298.49,
      4636779.81
     ],
     [
      448319.51,
      4636768.65
     ],
     [
      448341.2,
      4636761.85
     ],
     [
      448359.37,
      4636759.33
     ],
     [
      448378.91,
      4636761.18
     ],
     [
      448439.02,
      4636753.73
     ],
     [
      448452.34,
      4636743.86
     ],
     [
      448462.24,
      4636724.5
     ],
     [
      448467.98,
      4636698.53
     ],
     [
      448468.99,
      4636645.65
     ],
     [
      448459.51,
      4636595.45
     ],
     [
      448459.73,
      4636559.22
     ],
     [
      448450.94,
      4636509.77
     ],
     [
      448449.05,
      4636474.94
     ],
     [
      448458.5,
      4636413.54
     ],
     [
      448460.1,
      4636378.79
     ],
     [
      448465.81,
      4636357.9
     ],
     [
      448465.94,
      4636336.16
     ],
     [
      448459.76,
      4636319.36
     ],
     [
      448459.24,
      4636288.92
     ],
     [
      448461.39,
      4636279.54
     ],
     [
      448452.59,
      4636232.26
     ],
     [
      448456.18,
      4636215.67
     ],
     [
      448452.76,
      4636203.28
     ],
     [
      448452.84,
      4636190.23
     ],
     [
      448441.12,
      4636163.9
     ],
     [
      448437.79,
      4636137.75
     ],
     [
      448433.89,
      4636089.12
     ],
     [
      448423.08,
      4636028.02
     ],
     [
      448421.27,
      4635979.43
     ],
     [
      448410.57,
      4635900.22
     ],
     [
      448410.8,
      4635861.1
     ],
     [
      448401.43,
      4635792.06
     ],
     [
      448404.29,
      4635781.25
     ],
     [
      448397.46,
      4635755.02
     ],
     [
      448397.56,
      4635739.08
     ],
     [
      448402.53,
      4635724.69
     ],
     [
      448396.35,
      4635706.45
     ],
     [
      448396.69,
      4635649.93
     ],
     [
      448390.02,
      4635596.17
     ],
     [
      448389.48,
      4635570.07
     ],
     [
      448393.09,
      4635550.58
     ],
     [
      448387.61,
      4635533.08
     ],
     [
      448386.34,
      4635511.31
     ],
     [
      448390.83,
      4635461.4
     ],
     [
      448389.86,
      4635389.64
     ],
     [
      448396.31,
      4635360.79
     ],
     [
      448396.41,
      4635344.85
     ],
     [
      448403.47,
      4635331.95
     ],
     [
      448404.27,
      4635313.85
     ],
     [
      448418.41,
      4635285.16
     ],
     [
      448415.81,
      4635252.49
     ],
     [
      448410.99,
      4635241.52
     ],
     [
      448413.11,
      4635237.22
     ],
     [
      448420.1,
      4635235.92
     ],
     [
      448371.56,
      4635235.34
     ],
     [
      448374.75,
      4635223.08
     ],
     [
      448378.79,
      4635202.63
     ],
     [
      448383.7,
      4635182.19
     ],
     [
      448389.58,
      4635161.76
     ],
     [
      448395.68,
      4635141.34
     ],
     [
      448400.23,
      4635120.89
     ],
     [
      448405.89,
      4635100.46
     ],
     [
      448411.14,
      4635080.02
     ],
     [
      448416.23,
      4635059.59
     ],
     [
      448421.25,
      4635039.15
     ],
     [
      448422.27,
      4635018.66
     ],
     [
      448427.67,
      4634998.23
     ],
     [
      448433.67,
      4634977.8
     ],
     [
      448439.22,
      4634957.37
     ],
     [
      448442.98,
      4634936.92
     ],
     [
      448445.49,
      4634916.45
     ],
     [
      448450.87,
      4634896.01
     ],
     [
      448456.93,
      4634875.59
     ],
     [
      448463.0,
      4634855.16
     ],
     [
      448468.06,
      4634834.72
     ],
     [
      448471.6,
      4634814.27
     ],
     [
      448475.8,
      4634793.82
     ],
     [
      448484.59,
      4634773.42
     ],
     [
      448490.23,
      4634752.99
     ],
     [
      448492.87,
      4634732.53
     ],
     [
      448492.77,
      4634712.03
     ],
     [
      448496.13,
      4634691.57
     ],
     [
      448501.76,
      4634671.14
     ],
     [
      448506.27,
      4634650.7
     ],
     [
      448518.57,
      4634630.34
     ],
     [
      448531.7,
      4634609.99
     ],
     [
      448524.55,
      4634589.42
     ],
     [
      448525.19,
      4634568.93
     ],
     [
      448530.97,
      4634548.5
     ],
     [
      448535.95,
      4634528.06
     ],
     [
      448541.31,
      4634507.62
     ],
     [
      448546.99,
      4634487.19
     ],
     [
      448545.97,
      4634466.69
     ],
     [
      448546.24,
      4634446.19
     ],
     [
      448559.1,
      4634425.84
     ],
     [
      448567.7,
      4634405.44
     ],
     [
      448571.82,
      4634384.99
     ],
     [
      448576.29,
      4634364.55
     ],
     [
      448579.9,
      4634344.1
     ],
     [
      448582.9,
      4634323.63
     ],
     [
      448589.25,
      4634303.21
     ],
     [
      448594.96,
      4634282.78
     ],
     [
      448601.14,
      4634262.35
     ],
     [
      448605.51,
      4634241.91
     ],
     [
      448609.15,
      4634221.45
     ],
     [
      448615.22,
      4634201.03
     ],
     [
      448619.16,
      4634180.58
     ],
     [
      448619.44,
      4634178.81
     ]
    ]
   }
  },
  {
   "type": "Feature",
   "id": "station_heald_1812_report_north",
   "properties": {
    "kind": "station",
    "name": "North end of Heald's band (1.25 mi)",
    "along_m": 2011.7,
    "straight_m": 1726.8,
    "local": [
     1343.27,
     -1455.58
    ],
    "confidence": "inferred",
    "note": "A quarter of a mile either side. Heald writes 'about' and states the distance in half miles, so the reading is taken to mean the nearest half mile and the band is the interval that rounds to it, 1.25 to 1.75 miles. That is this project's reading of 'about', graded inferred; a tighter band would claim a precision the letter does not.",
    "sources": [
     "moses_kirkland_history_of_chicago_v1"
    ],
    "provenance": {
     "derived_by": "tools/derive_evacuation_1812.py",
     "readings": "data/terrain/1812_evacuation_readings.json",
     "lines": [
      "data/terrain/epochs/e1830_natural/shoreline.geojson",
      "data/terrain/epochs/e1834_harbor_cut/lake_shore_below_twelfth.geojson",
      "data/traces/south_anchor_control.json"
     ],
     "rule": "generated — do not hand-edit; tools/derive_evacuation_1812.py --check re-derives this file"
    },
    "reading": "heald_1812_report",
    "role": "primary_adopted"
   },
   "geometry": {
    "type": "Point",
    "coordinates": [
     448415.97,
     4635940.22
    ]
   }
  },
  {
   "type": "Feature",
   "id": "station_heald_1812_report",
   "properties": {
    "kind": "station",
    "name": "About a mile and a half (Heald)",
    "along_m": 2414.0,
    "straight_m": 2118.6,
    "local": [
     1318.04,
     -1852.71
    ],
    "confidence": "inferred",
    "note": "The commander's own figure, written within weeks - the strongest distance there is. Graded inferred and not documented because it reaches this project only as quoted in a tier-3 compilation's machine OCR; no record of the letter itself is held.",
    "sources": [
     "moses_kirkland_history_of_chicago_v1"
    ],
    "provenance": {
     "derived_by": "tools/derive_evacuation_1812.py",
     "readings": "data/terrain/1812_evacuation_readings.json",
     "lines": [
      "data/terrain/epochs/e1830_natural/shoreline.geojson",
      "data/terrain/epochs/e1834_harbor_cut/lake_shore_below_twelfth.geojson",
      "data/traces/south_anchor_control.json"
     ],
     "rule": "generated — do not hand-edit; tools/derive_evacuation_1812.py --check re-derives this file"
    },
    "reading": "heald_1812_report",
    "role": "primary_adopted"
   },
   "geometry": {
    "type": "Point",
    "coordinates": [
     448390.74,
     4635543.09
    ]
   }
  },
  {
   "type": "Feature",
   "id": "station_heald_1812_report_south",
   "properties": {
    "kind": "station",
    "name": "South end of Heald's band (1.75 mi)",
    "along_m": 2816.4,
    "straight_m": 2456.0,
    "local": [
     1305.92,
     -2192.32
    ],
    "confidence": "inferred",
    "note": "A quarter of a mile either side. Heald writes 'about' and states the distance in half miles, so the reading is taken to mean the nearest half mile and the band is the interval that rounds to it, 1.25 to 1.75 miles. That is this project's reading of 'about', graded inferred; a tighter band would claim a precision the letter does not.",
    "sources": [
     "moses_kirkland_history_of_chicago_v1"
    ],
    "provenance": {
     "derived_by": "tools/derive_evacuation_1812.py",
     "readings": "data/terrain/1812_evacuation_readings.json",
     "lines": [
      "data/terrain/epochs/e1830_natural/shoreline.geojson",
      "data/terrain/epochs/e1834_harbor_cut/lake_shore_below_twelfth.geojson",
      "data/traces/south_anchor_control.json"
     ],
     "rule": "generated — do not hand-edit; tools/derive_evacuation_1812.py --check re-derives this file"
    },
    "reading": "heald_1812_report",
    "role": "primary_adopted"
   },
   "geometry": {
    "type": "Point",
    "coordinates": [
     448378.62,
     4635203.48
    ]
   }
  },
  {
   "type": "Feature",
   "id": "station_jordan_1812_letter",
   "properties": {
    "kind": "station",
    "name": "Half a mile (Jordan, not adopted)",
    "along_m": 804.7,
    "straight_m": 684.7,
    "local": [
     1163.84,
     -426.75
    ],
    "confidence": "conjectural",
    "note": "Contemporary, and the editors print it among 'a few unmistakeable contemporary lies' (lines 8737-8738). Kept beside, not adopted: half a mile measured along the route ends at the river's natural outlet itself, before the beach every other account puts the attack on. Its station is drawn so the disagreement can be seen.",
    "sources": [
     "moses_kirkland_history_of_chicago_v1"
    ],
    "provenance": {
     "derived_by": "tools/derive_evacuation_1812.py",
     "readings": "data/terrain/1812_evacuation_readings.json",
     "lines": [
      "data/terrain/epochs/e1830_natural/shoreline.geojson",
      "data/terrain/epochs/e1834_harbor_cut/lake_shore_below_twelfth.geojson",
      "data/traces/south_anchor_control.json"
     ],
     "rule": "generated — do not hand-edit; tools/derive_evacuation_1812.py --check re-derives this file"
    },
    "reading": "jordan_1812_letter",
    "role": "alternative_not_adopted"
   },
   "geometry": {
    "type": "Point",
    "coordinates": [
     448236.54,
     4636969.05
    ]
   }
  },
  {
   "type": "Feature",
   "id": "station_eighteenth_street_row",
   "properties": {
    "kind": "station",
    "name": "Eighteenth Street's row on the shore",
    "along_m": 3870.2,
    "straight_m": 3489.6,
    "local": [
     1544.86,
     -3206.93
    ],
    "confidence": "conjectural",
    "note": "Where the route crosses Eighteenth Street's row. A modern locator for the tradition's place, not a location of the battle.",
    "sources": [
     "moses_kirkland_history_of_chicago_v1",
     "osm_streets_2026"
    ],
    "provenance": {
     "derived_by": "tools/derive_evacuation_1812.py",
     "readings": "data/terrain/1812_evacuation_readings.json",
     "lines": [
      "data/terrain/epochs/e1830_natural/shoreline.geojson",
      "data/terrain/epochs/e1834_harbor_cut/lake_shore_below_twelfth.geojson",
      "data/traces/south_anchor_control.json"
     ],
     "rule": "generated — do not hand-edit; tools/derive_evacuation_1812.py --check re-derives this file"
    },
    "reading": "eighteenth_street_trees",
    "role": "tradition_kept_beside"
   },
   "geometry": {
    "type": "Point",
    "coordinates": [
     448617.56,
     4634188.87
    ]
   }
  },
  {
   "type": "Feature",
   "id": "eighteenth_street_trees_locus",
   "properties": {
    "kind": "landmark_locus",
    "name": "The Eighteenth Street cottonwoods (tradition)",
    "length_m": 143.0,
    "confidence": "conjectural",
    "note": "Eighteenth Street's row, east of Prairie Avenue to the shore. Arnold names the street ('leading from Michigan avenue to the lake') and puts the tree 'not very far from the track of the Illinois Central', which ran along the lake end; Prairie's committed crossing is taken as the locus's west limit for that reason. No easting is stated for either tree, so the locus is a line along the street and not a point. Drawn along the row's northing; the street's small departure from due east is not modelled. A tradition, recorded in the 1880s and 1890s, carried by the Kinzie family and by one unnamed Potawatomi witness relayed second-hand. Juliette Kinzie's 'saplings at the time' is a statement about the trees, not about the battle. It is the one reading that names a place, and it lies further south than the distance reading allows - see the derived file's disagreement - so it is kept beside the distance and neither is preferred.",
    "sources": [
     "moses_kirkland_history_of_chicago_v1",
     "osm_streets_2026"
    ],
    "provenance": {
     "derived_by": "tools/derive_evacuation_1812.py",
     "readings": "data/terrain/1812_evacuation_readings.json",
     "lines": [
      "data/terrain/epochs/e1830_natural/shoreline.geojson",
      "data/terrain/epochs/e1834_harbor_cut/lake_shore_below_twelfth.geojson",
      "data/traces/south_anchor_control.json"
     ],
     "rule": "generated — do not hand-edit; tools/derive_evacuation_1812.py --check re-derives this file"
    }
   },
   "geometry": {
    "type": "LineString",
    "coordinates": [
     [
      448474.56,
      4634188.87
     ],
     [
      448617.56,
      4634188.87
     ]
    ]
   }
  },
  {
   "type": "Feature",
   "id": "battle_zone_1812",
   "properties": {
    "kind": "confidence_zone",
    "name": "Where the accounts place the attack of 15 August 1812",
    "along_m": [
     2011.7,
     3880.4
    ],
    "width_m": 91.44,
    "confidence": "inferred",
    "precision": "zone",
    "note": "The strip between the waterline and the ridge line, from the north end of Heald's band to Eighteenth Street's south line. Its north part is the distance reading (2012-2816 m along the route); its south end is the tradition (3870 m along). They disagree by 1456.2 m, so the zone spans both and prefers neither, and NO POINT INSIDE IT IS CLAIMED. The fight round the wagons in the rear, the charge up the bank and the parley all fall within it on the accounts read; Heald's withdrawal 'out of shot of the bank' lay inland of it at no stated distance and is not drawn. The zone is the strip from the waterline back to the ridge line - 100 yards, Quaife's figure and the wider of the two - because both readings put the attackers 'behind the bank' and the column on the beach in front of it, so the attack stood between the water and the ridge. The 1895 editors' 'a hundred feet or more' is the bank's near face and falls inside the strip. Offset due west, the land side, rather than square to the shore; where the shore runs about 13 degrees east of south that makes the strip about 2.5 per cent narrower measured square to it.",
    "sources": [
     "moses_kirkland_history_of_chicago_v1",
     "quaife_1913"
    ],
    "review_required": true,
    "review_note": "Held for review because this record locates a battle fought by Potawatomi and allied warriors, and every account it reads was written by the garrison's side or by settler historians - none by the Potawatomi. That is the Indigenous-history review T-0472 gates the 1812 interpretive scene on. This file is geography only: it places a route and an evidence-weighted zone, stages nobody, depicts nobody, and quotes the printed accounts verbatim (their words, not this project's) only where a distance or a landform is read from them.",
    "provenance": {
     "derived_by": "tools/derive_evacuation_1812.py",
     "readings": "data/terrain/1812_evacuation_readings.json",
     "lines": [
      "data/terrain/epochs/e1830_natural/shoreline.geojson",
      "data/terrain/epochs/e1834_harbor_cut/lake_shore_below_twelfth.geojson",
      "data/traces/south_anchor_control.json"
     ],
     "rule": "generated — do not hand-edit; tools/derive_evacuation_1812.py --check re-derives this file"
    }
   },
   "geometry": {
    "type": "Polygon",
    "coordinates": [
     [
      [
       448415.97,
       4635940.22
      ],
      [
       448414.63,
       4635930.31
      ],
      [
       448413.3,
       4635920.4
      ],
      [
       448411.96,
       4635910.49
      ],
      [
       448410.62,
       4635900.58
      ],
      [
       448410.57,
       4635900.22
      ],
      [
       448410.63,
       4635890.58
      ],
      [
       448410.69,
       4635880.58
      ],
      [
       448410.74,
       4635870.58
      ],
      [
       448410.8,
       4635861.1
      ],
      [
       448410.73,
       4635860.59
      ],
      [
       448409.39,
       4635850.68
      ],
      [
       448408.04,
       4635840.77
      ],
      [
       448406.7,
       4635830.86
      ],
      [
       448405.35,
       4635820.95
      ],
      [
       448404.01,
       4635811.04
      ],
      [
       448402.66,
       4635801.13
      ],
      [
       448401.43,
       4635792.06
      ],
      [
       448401.65,
       4635791.25
      ],
      [
       448404.2,
       4635781.58
      ],
      [
       448404.29,
       4635781.25
      ],
      [
       448401.86,
       4635771.9
      ],
      [
       448399.34,
       4635762.22
      ],
      [
       448397.46,
       4635755.02
      ],
      [
       448397.48,
       4635752.46
      ],
      [
       448397.54,
       4635742.46
      ],
      [
       448397.56,
       4635739.08
      ],
      [
       448399.72,
       4635732.83
      ],
      [
       448402.53,
       4635724.69
      ],
      [
       448402.08,
       4635723.37
      ],
      [
       448398.87,
       4635713.9
      ],
      [
       448396.35,
       4635706.45
      ],
      [
       448396.36,
       4635704.32
      ],
      [
       448396.42,
       4635694.32
      ],
      [
       448396.48,
       4635684.32
      ],
      [
       448396.54,
       4635674.32
      ],
      [
       448396.6,
       4635664.32
      ],
      [
       448396.66,
       4635654.32
      ],
      [
       448396.69,
       4635649.93
      ],
      [
       448396.0,
       4635644.36
      ],
      [
       448394.77,
       4635634.44
      ],
      [
       448393.54,
       4635624.51
      ],
      [
       448392.31,
       4635614.59
      ],
      [
       448391.07,
       4635604.67
      ],
      [
       448390.02,
       4635596.17
      ],
      [
       448389.99,
       4635594.73
      ],
      [
       448389.78,
       4635584.73
      ],
      [
       448389.58,
       4635574.73
      ],
      [
       448389.48,
       4635570.07
      ],
      [
       448390.45,
       4635564.83
      ],
      [
       448392.27,
       4635554.99
      ],
      [
       448393.09,
       4635550.58
      ],
      [
       448391.44,
       4635545.32
      ],
      [
       448388.45,
       4635535.78
      ],
      [
       448387.61,
       4635533.08
      ],
      [
       448387.19,
       4635525.92
      ],
      [
       448386.61,
       4635515.93
      ],
      [
       448386.34,
       4635511.31
      ],
      [
       448386.82,
       4635505.96
      ],
      [
       448387.72,
       4635496.0
      ],
      [
       448388.61,
       4635486.04
      ],
      [
       448389.51,
       4635476.08
      ],
      [
       448390.4,
       4635466.12
      ],
      [
       448390.83,
       4635461.4
      ],
      [
       448390.76,
       4635456.14
      ],
      [
       448390.62,
       4635446.15
      ],
      [
       448390.49,
       4635436.15
      ],
      [
       448390.35,
       4635426.15
      ],
      [
       448390.22,
       4635416.15
      ],
      [
       448390.08,
       4635406.15
      ],
      [
       448389.95,
       4635396.15
      ],
      [
       448389.86,
       4635389.64
      ],
      [
       448390.62,
       4635386.23
      ],
      [
       448392.8,
       4635376.48
      ],
      [
       448394.99,
       4635366.72
      ],
      [
       448396.31,
       4635360.79
      ],
      [
       448396.33,
       4635356.86
      ],
      [
       448396.4,
       4635346.86
      ],
      [
       448396.41,
       4635344.85
      ],
      [
       448400.24,
       4635337.84
      ],
      [
       448403.47,
       4635331.95
      ],
      [
       448403.61,
       4635328.67
      ],
      [
       448404.06,
       4635318.68
      ],
      [
       448404.27,
       4635313.85
      ],
      [
       448406.55,
       4635309.22
      ],
      [
       448410.97,
       4635300.25
      ],
      [
       448415.39,
       4635291.28
      ],
      [
       448418.41,
       4635285.16
      ],
      [
       448418.16,
       4635281.99
      ],
      [
       448417.36,
       4635272.02
      ],
      [
       448416.57,
       4635262.05
      ],
      [
       448415.81,
       4635252.49
      ],
      [
       448415.65,
       4635252.12
      ],
      [
       448411.62,
       4635242.96
      ],
      [
       448410.99,
       4635241.52
      ],
      [
       448413.11,
       4635237.22
      ],
      [
       448416.68,
       4635236.56
      ],
      [
       448420.1,
       4635235.92
      ],
      [
       448413.58,
       4635235.84
      ],
      [
       448403.58,
       4635235.72
      ],
      [
       448393.58,
       4635235.6
      ],
      [
       448383.58,
       4635235.48
      ],
      [
       448373.58,
       4635235.36
      ],
      [
       448371.56,
       4635235.34
      ],
      [
       448373.57,
       4635227.62
      ],
      [
       448374.75,
       4635223.08
      ],
      [
       448375.78,
       4635217.87
      ],
      [
       448377.72,
       4635208.06
      ],
      [
       448378.79,
       4635202.63
      ],
      [
       448379.83,
       4635198.29
      ],
      [
       448382.17,
       4635188.57
      ],
      [
       448383.7,
       4635182.19
      ],
      [
       448384.65,
       4635178.88
      ],
      [
       448387.42,
       4635169.27
      ],
      [
       448389.58,
       4635161.76
      ],
      [
       448390.2,
       4635159.67
      ],
      [
       448393.07,
       4635150.09
      ],
      [
       448395.68,
       4635141.34
      ],
      [
       448395.87,
       4635140.49
      ],
      [
       448398.04,
       4635130.73
      ],
      [
       448400.21,
       4635120.97
      ],
      [
       448400.23,
       4635120.89
      ],
      [
       448402.88,
       4635111.33
      ],
      [
       448405.55,
       4635101.69
      ],
      [
       448405.89,
       4635100.46
      ],
      [
       448408.06,
       4635092.01
      ],
      [
       448410.55,
       4635082.33
      ],
      [
       448411.14,
       4635080.02
      ],
      [
       448412.98,
       4635072.63
      ],
      [
       448415.4,
       4635062.93
      ],
      [
       448416.23,
       4635059.59
      ],
      [
       448417.8,
       4635053.22
      ],
      [
       448420.18,
       4635043.51
      ],
      [
       448421.25,
       4635039.15
      ],
      [
       448421.52,
       4635033.64
      ],
      [
       448422.02,
       4635023.65
      ],
      [
       448422.27,
       4635018.66
      ],
      [
       448423.55,
       4635013.83
      ],
      [
       448426.1,
       4635004.16
      ],
      [
       448427.67,
       4634998.23
      ],
      [
       448428.76,
       4634994.52
      ],
      [
       448431.58,
       4634984.92
      ],
      [
       448433.67,
       4634977.8
      ],
      [
       448434.34,
       4634975.32
      ],
      [
       448436.97,
       4634965.67
      ],
      [
       448439.22,
       4634957.37
      ],
      [
       448439.47,
       4634955.99
      ],
      [
       448441.28,
       4634946.15
      ],
      [
       448442.98,
       4634936.92
      ],
      [
       448443.05,
       4634936.31
      ],
      [
       448444.27,
       4634926.39
      ],
      [
       448445.49,
       4634916.46
      ],
      [
       448445.49,
       4634916.45
      ],
      [
       448448.03,
       4634906.79
      ],
      [
       448450.58,
       4634897.12
      ],
      [
       448450.87,
       4634896.01
      ],
      [
       448453.39,
       4634887.52
      ],
      [
       448456.23,
       4634877.94
      ],
      [
       448456.93,
       4634875.59
      ],
      [
       448459.08,
       4634868.35
      ],
      [
       448461.93,
       4634858.77
      ],
      [
       448463.0,
       4634855.16
      ],
      [
       448464.5,
       4634849.1
      ],
      [
       448466.9,
       4634839.4
      ],
      [
       448468.06,
       4634834.72
      ],
      [
       448468.94,
       4634829.61
      ],
      [
       448470.65,
       4634819.76
      ],
      [
       448471.6,
       4634814.27
      ],
      [
       448472.49,
       4634809.93
      ],
      [
       448474.5,
       4634800.14
      ],
      [
       448475.8,
       4634793.82
      ],
      [
       448477.21,
       4634790.56
      ],
      [
       448481.16,
       4634781.37
      ],
      [
       448484.59,
       4634773.42
      ],
      [
       448484.95,
       4634772.13
      ],
      [
       448487.61,
       4634762.49
      ],
      [
       448490.23,
       4634752.99
      ],
      [
       448490.25,
       4634752.85
      ],
      [
       448491.53,
       4634742.93
      ],
      [
       448492.81,
       4634733.01
      ],
      [
       448492.87,
       4634732.53
      ],
      [
       448492.82,
       4634723.02
      ],
      [
       448492.77,
       4634713.02
      ],
      [
       448492.77,
       4634712.03
      ],
      [
       448494.23,
       4634703.14
      ],
      [
       448495.85,
       4634693.27
      ],
      [
       448496.13,
       4634691.57
      ],
      [
       448498.33,
       4634683.59
      ],
      [
       448500.99,
       4634673.95
      ],
      [
       448501.76,
       4634671.14
      ],
      [
       448503.29,
       4634664.22
      ],
      [
       448505.44,
       4634654.45
      ],
      [
       448506.27,
       4634650.7
      ],
      [
       448509.45,
       4634645.43
      ],
      [
       448514.62,
       4634636.87
      ],
      [
       448518.57,
       4634630.34
      ],
      [
       448519.85,
       4634628.35
      ],
      [
       448525.28,
       4634619.95
      ],
      [
       448530.7,
       4634611.54
      ],
      [
       448531.7,
       4634609.99
      ],
      [
       448529.02,
       4634602.29
      ],
      [
       448525.74,
       4634592.84
      ],
      [
       448524.55,
       4634589.42
      ],
      [
       448524.75,
       4634583.05
      ],
      [
       448525.06,
       4634573.05
      ],
      [
       448525.19,
       4634568.93
      ],
      [
       448526.79,
       4634563.28
      ],
      [
       448529.51,
       4634553.66
      ],
      [
       448530.97,
       4634548.5
      ],
      [
       448532.07,
       4634543.99
      ],
      [
       448534.44,
       4634534.27
      ],
      [
       448535.95,
       4634528.06
      ],
      [
       448536.86,
       4634524.57
      ],
      [
       448539.4,
       4634514.9
      ],
      [
       448541.31,
       4634507.62
      ],
      [
       448541.97,
       4634505.24
      ],
      [
       448544.65,
       4634495.6
      ],
      [
       448546.99,
       4634487.19
      ],
      [
       448546.93,
       4634485.92
      ],
      [
       448546.43,
       4634475.94
      ],
      [
       448545.97,
       4634466.69
      ],
      [
       448545.98,
       4634465.95
      ],
      [
       448546.11,
       4634455.95
      ],
      [
       448546.24,
       4634446.19
      ],
      [
       448546.37,
       4634445.99
      ],
      [
       448551.71,
       4634437.53
      ],
      [
       448557.05,
       4634429.08
      ],
      [
       448559.1,
       4634425.84
      ],
      [
       448561.5,
       4634420.16
      ],
      [
       448565.38,
       4634410.94
      ],
      [
       448567.7,
       4634405.44
      ],
      [
       448568.5,
       4634401.49
      ],
      [
       448570.47,
       4634391.69
      ],
      [
       448571.82,
       4634384.99
      ],
      [
       448572.5,
       4634381.89
      ],
      [
       448574.63,
       4634372.13
      ],
      [
       448576.29,
       4634364.55
      ],
      [
       448576.68,
       4634362.34
      ],
      [
       448578.42,
       4634352.49
      ],
      [
       448579.9,
       4634344.1
      ],
      [
       448580.11,
       4634342.64
      ],
      [
       448581.56,
       4634332.74
      ],
      [
       448582.9,
       4634323.63
      ],
      [
       448583.13,
       4634322.87
      ],
      [
       448586.1,
       4634313.33
      ],
      [
       448589.07,
       4634303.78
      ],
      [
       448589.25,
       4634303.21
      ],
      [
       448591.78,
       4634294.15
      ],
      [
       448594.47,
       4634284.52
      ],
      [
       448594.96,
       4634282.78
      ],
      [
       448597.33,
       4634274.94
      ],
      [
       448600.23,
       4634265.37
      ],
      [
       448601.14,
       4634262.35
      ],
      [
       448602.57,
       4634255.65
      ],
      [
       448604.66,
       4634245.87
      ],
      [
       448605.51,
       4634241.91
      ],
      [
       448606.55,
       4634236.05
      ],
      [
       448608.3,
       4634226.21
      ],
      [
       448609.15,
       4634221.45
      ],
      [
       448610.62,
       4634216.5
      ],
      [
       448613.47,
       4634206.91
      ],
      [
       448615.22,
       4634201.03
      ],
      [
       448615.95,
       4634197.24
      ],
      [
       448617.84,
       4634187.42
      ],
      [
       448619.16,
       4634180.58
      ],
      [
       448619.44,
       4634178.81
      ],
      [
       448528.0,
       4634178.81
      ],
      [
       448527.72,
       4634180.58
      ],
      [
       448526.4,
       4634187.42
      ],
      [
       448524.51,
       4634197.24
      ],
      [
       448523.78,
       4634201.03
      ],
      [
       448522.03,
       4634206.91
      ],
      [
       448519.18,
       4634216.5
      ],
      [
       448517.71,
       4634221.45
      ],
      [
       448516.86,
       4634226.21
      ],
      [
       448515.11,
       4634236.05
      ],
      [
       448514.07,
       4634241.91
      ],
      [
       448513.22,
       4634245.87
      ],
      [
       448511.13,
       4634255.65
      ],
      [
       448509.7,
       4634262.35
      ],
      [
       448508.79,
       4634265.37
      ],
      [
       448505.89,
       4634274.94
      ],
      [
       448503.52,
       4634282.78
      ],
      [
       448503.03,
       4634284.52
      ],
      [
       448500.34,
       4634294.15
      ],
      [
       448497.81,
       4634303.21
      ],
      [
       448497.63,
       4634303.78
      ],
      [
       448494.66,
       4634313.33
      ],
      [
       448491.69,
       4634322.87
      ],
      [
       448491.46,
       4634323.63
      ],
      [
       448490.12,
       4634332.74
      ],
      [
       448488.67,
       4634342.64
      ],
      [
       448488.46,
       4634344.1
      ],
      [
       448486.98,
       4634352.49
      ],
      [
       448485.24,
       4634362.34
      ],
      [
       448484.85,
       4634364.55
      ],
      [
       448483.19,
       4634372.13
      ],
      [
       448481.06,
       4634381.89
      ],
      [
       448480.38,
       4634384.99
      ],
      [
       448479.03,
       4634391.69
      ],
      [
       448477.06,
       4634401.49
      ],
      [
       448476.26,
       4634405.44
      ],
      [
       448473.94,
       4634410.94
      ],
      [
       448470.06,
       4634420.16
      ],
      [
       448467.66,
       4634425.84
      ],
      [
       448465.61,
       4634429.08
      ],
      [
       448460.27,
       4634437.53
      ],
      [
       448454.93,
       4634445.99
      ],
      [
       448454.8,
       4634446.19
      ],
      [
       448454.67,
       4634455.95
      ],
      [
       448454.54,
       4634465.95
      ],
      [
       448454.53,
       4634466.69
      ],
      [
       448454.99,
       4634475.94
      ],
      [
       448455.49,
       4634485.92
      ],
      [
       448455.55,
       4634487.19
      ],
      [
       448453.21,
       4634495.6
      ],
      [
       448450.53,
       4634505.24
      ],
      [
       448449.87,
       4634507.62
      ],
      [
       448447.96,
       4634514.9
      ],
      [
       448445.42,
       4634524.57
      ],
      [
       448444.51,
       4634528.06
      ],
      [
       448443.0,
       4634534.27
      ],
      [
       448440.63,
       4634543.99
      ],
      [
       448439.53,
       4634548.5
      ],
      [
       448438.07,
       4634553.66
      ],
      [
       448435.35,
       4634563.28
      ],
      [
       448433.75,
       4634568.93
      ],
      [
       448433.62,
       4634573.05
      ],
      [
       448433.31,
       4634583.05
      ],
      [
       448433.11,
       4634589.42
      ],
      [
       448434.3,
       4634592.84
      ],
      [
       448437.58,
       4634602.29
      ],
      [
       448440.26,
       4634609.99
      ],
      [
       448439.26,
       4634611.54
      ],
      [
       448433.84,
       4634619.95
      ],
      [
       448428.41,
       4634628.35
      ],
      [
       448427.13,
       4634630.34
      ],
      [
       448423.18,
       4634636.87
      ],
      [
       448418.01,
       4634645.43
      ],
      [
       448414.83,
       4634650.7
      ],
      [
       448414.0,
       4634654.45
      ],
      [
       448411.85,
       4634664.22
      ],
      [
       448410.32,
       4634671.14
      ],
      [
       448409.55,
       4634673.95
      ],
      [
       448406.89,
       4634683.59
      ],
      [
       448404.69,
       4634691.57
      ],
      [
       448404.41,
       4634693.27
      ],
      [
       448402.79,
       4634703.14
      ],
      [
       448401.33,
       4634712.03
      ],
      [
       448401.33,
       4634713.02
      ],
      [
       448401.38,
       4634723.02
      ],
      [
       448401.43,
       4634732.53
      ],
      [
       448401.37,
       4634733.01
      ],
      [
       448400.09,
       4634742.93
      ],
      [
       448398.81,
       4634752.85
      ],
      [
       448398.79,
       4634752.99
      ],
      [
       448396.17,
       4634762.49
      ],
      [
       448393.51,
       4634772.13
      ],
      [
       448393.15,
       4634773.42
      ],
      [
       448389.72,
       4634781.37
      ],
      [
       448385.77,
       4634790.56
      ],
      [
       448384.36,
       4634793.82
      ],
      [
       448383.06,
       4634800.14
      ],
      [
       448381.05,
       4634809.93
      ],
      [
       448380.16,
       4634814.27
      ],
      [
       448379.21,
       4634819.76
      ],
      [
       448377.5,
       4634829.61
      ],
      [
       448376.62,
       4634834.72
      ],
      [
       448375.46,
       4634839.4
      ],
      [
       448373.06,
       4634849.1
      ],
      [
       448371.56,
       4634855.16
      ],
      [
       448370.49,
       4634858.77
      ],
      [
       448367.64,
       4634868.35
      ],
      [
       448365.49,
       4634875.59
      ],
      [
       448364.79,
       4634877.94
      ],
      [
       448361.95,
       4634887.52
      ],
      [
       448359.43,
       4634896.01
      ],
      [
       448359.14,
       4634897.12
      ],
      [
       448356.59,
       4634906.79
      ],
      [
       448354.05,
       4634916.45
      ],
      [
       448354.05,
       4634916.46
      ],
      [
       448352.83,
       4634926.39
      ],
      [
       448351.61,
       4634936.31
      ],
      [
       448351.54,
       4634936.92
      ],
      [
       448349.84,
       4634946.15
      ],
      [
       448348.03,
       4634955.99
      ],
      [
       448347.78,
       4634957.37
      ],
      [
       448345.53,
       4634965.67
      ],
      [
       448342.9,
       4634975.32
      ],
      [
       448342.23,
       4634977.8
      ],
      [
       448340.14,
       4634984.92
      ],
      [
       448337.32,
       4634994.52
      ],
      [
       448336.23,
       4634998.23
      ],
      [
       448334.66,
       4635004.16
      ],
      [
       448332.11,
       4635013.83
      ],
      [
       448330.83,
       4635018.66
      ],
      [
       448330.58,
       4635023.65
      ],
      [
       448330.08,
       4635033.64
      ],
      [
       448329.81,
       4635039.15
      ],
      [
       448328.74,
       4635043.51
      ],
      [
       448326.36,
       4635053.22
      ],
      [
       448324.79,
       4635059.59
      ],
      [
       448323.96,
       4635062.93
      ],
      [
       448321.54,
       4635072.63
      ],
      [
       448319.7,
       4635080.02
      ],
      [
       448319.11,
       4635082.33
      ],
      [
       448316.62,
       4635092.01
      ],
      [
       448314.45,
       4635100.46
      ],
      [
       448314.11,
       4635101.69
      ],
      [
       448311.44,
       4635111.33
      ],
      [
       448308.79,
       4635120.89
      ],
      [
       448308.77,
       4635120.97
      ],
      [
       448306.6,
       4635130.73
      ],
      [
       448304.43,
       4635140.49
      ],
      [
       448304.24,
       4635141.34
      ],
      [
       448301.63,
       4635150.09
      ],
      [
       448298.76,
       4635159.67
      ],
      [
       448298.14,
       4635161.76
      ],
      [
       448295.98,
       4635169.27
      ],
      [
       448293.21,
       4635178.88
      ],
      [
       448292.26,
       4635182.19
      ],
      [
       448290.73,
       4635188.57
      ],
      [
       448288.39,
       4635198.29
      ],
      [
       448287.35,
       4635202.63
      ],
      [
       448286.28,
       4635208.06
      ],
      [
       448284.34,
       4635217.87
      ],
      [
       448283.31,
       4635223.08
      ],
      [
       448282.13,
       4635227.62
      ],
      [
       448280.12,
       4635235.34
      ],
      [
       448282.14,
       4635235.36
      ],
      [
       448292.14,
       4635235.48
      ],
      [
       448302.14,
       4635235.6
      ],
      [
       448312.14,
       4635235.72
      ],
      [
       448322.14,
       4635235.84
      ],
      [
       448328.66,
       4635235.92
      ],
      [
       448325.24,
       4635236.56
      ],
      [
       448321.67,
       4635237.22
      ],
      [
       448319.55,
       4635241.52
      ],
      [
       448320.18,
       4635242.96
      ],
      [
       448324.21,
       4635252.12
      ],
      [
       448324.37,
       4635252.49
      ],
      [
       448325.13,
       4635262.05
      ],
      [
       448325.92,
       4635272.02
      ],
      [
       448326.72,
       4635281.99
      ],
      [
       448326.97,
       4635285.16
      ],
      [
       448323.95,
       4635291.28
      ],
      [
       448319.53,
       4635300.25
      ],
      [
       448315.11,
       4635309.22
      ],
      [
       448312.83,
       4635313.85
      ],
      [
       448312.62,
       4635318.68
      ],
      [
       448312.17,
       4635328.67
      ],
      [
       448312.03,
       4635331.95
      ],
      [
       448308.8,
       4635337.84
      ],
      [
       448304.97,
       4635344.85
      ],
      [
       448304.96,
       4635346.86
      ],
      [
       448304.89,
       4635356.86
      ],
      [
       448304.87,
       4635360.79
      ],
      [
       448303.55,
       4635366.72
      ],
      [
       448301.36,
       4635376.48
      ],
      [
       448299.18,
       4635386.23
      ],
      [
       448298.42,
       4635389.64
      ],
      [
       448298.51,
       4635396.15
      ],
      [
       448298.64,
       4635406.15
      ],
      [
       448298.78,
       4635416.15
      ],
      [
       448298.91,
       4635426.15
      ],
      [
       448299.05,
       4635436.15
      ],
      [
       448299.18,
       4635446.15
      ],
      [
       448299.32,
       4635456.14
      ],
      [
       448299.39,
       4635461.4
      ],
      [
       448298.96,
       4635466.12
      ],
      [
       448298.07,
       4635476.08
      ],
      [
       448297.17,
       4635486.04
      ],
      [
       448296.28,
       4635496.0
      ],
      [
       448295.38,
       4635505.96
      ],
      [
       448294.9,
       4635511.31
      ],
      [
       448295.17,
       4635515.93
      ],
      [
       448295.75,
       4635525.92
      ],
      [
       448296.17,
       4635533.08
      ],
      [
       448297.01,
       4635535.78
      ],
      [
       448300.0,
       4635545.32
      ],
      [
       448301.65,
       4635550.58
      ],
      [
       448300.83,
       4635554.99
      ],
      [
       448299.01,
       4635564.83
      ],
      [
       448298.04,
       4635570.07
      ],
      [
       448298.14,
       4635574.73
      ],
      [
       448298.34,
       4635584.73
      ],
      [
       448298.55,
       4635594.73
      ],
      [
       448298.58,
       4635596.17
      ],
      [
       448299.63,
       4635604.67
      ],
      [
       448300.87,
       4635614.59
      ],
      [
       448302.1,
       4635624.51
      ],
      [
       448303.33,
       4635634.44
      ],
      [
       448304.56,
       4635644.36
      ],
      [
       448305.25,
       4635649.93
      ],
      [
       448305.22,
       4635654.32
      ],
      [
       448305.16,
       4635664.32
      ],
      [
       448305.1,
       4635674.32
      ],
      [
       448305.04,
       4635684.32
      ],
      [
       448304.98,
       4635694.32
      ],
      [
       448304.92,
       4635704.32
      ],
      [
       448304.91,
       4635706.45
      ],
      [
       448307.43,
       4635713.9
      ],
      [
       448310.64,
       4635723.37
      ],
      [
       448311.09,
       4635724.69
      ],
      [
       448308.28,
       4635732.83
      ],
      [
       448306.12,
       4635739.08
      ],
      [
       448306.1,
       4635742.46
      ],
      [
       448306.04,
       4635752.46
      ],
      [
       448306.02,
       4635755.02
      ],
      [
       448307.9,
       4635762.22
      ],
      [
       448310.42,
       4635771.9
      ],
      [
       448312.85,
       4635781.25
      ],
      [
       448312.76,
       4635781.58
      ],
      [
       448310.21,
       4635791.25
      ],
      [
       448309.99,
       4635792.06
      ],
      [
       448311.22,
       4635801.13
      ],
      [
       448312.57,
       4635811.04
      ],
      [
       448313.91,
       4635820.95
      ],
      [
       448315.26,
       4635830.86
      ],
      [
       448316.6,
       4635840.77
      ],
      [
       448317.95,
       4635850.68
      ],
      [
       448319.29,
       4635860.59
      ],
      [
       448319.36,
       4635861.1
      ],
      [
       448319.3,
       4635870.58
      ],
      [
       448319.25,
       4635880.58
      ],
      [
       448319.19,
       4635890.58
      ],
      [
       448319.13,
       4635900.22
      ],
      [
       448319.18,
       4635900.58
      ],
      [
       448320.52,
       4635910.49
      ],
      [
       448321.86,
       4635920.4
      ],
      [
       448323.19,
       4635930.31
      ],
      [
       448324.53,
       4635940.22
      ],
      [
       448415.97,
       4635940.22
      ]
     ]
    ]
   }
  }
 ]
}
