{
 "type": "FeatureCollection",
 "_doc": "GENERATED by generators/terrain_gen_e1830.py from the e1830_natural spec, its shoreline.geojson and the 1834 harbour trace (T-2003) - do not hand-edit. Coordinates are UTM 16N metres, as every other terrain vector file here.",
 "features": [
  {
   "type": "Feature",
   "id": "river_mouth_water_1812",
   "properties": {
    "kind": "water",
    "name": "The 1812 river: the main stem, the channel behind the spit, the mouth and the lake margin",
    "confidence": "inferred",
    "derivation": "1834 harbor_reach_water's outer ring, less the north shore from the cut on the north bank to the pier head (1834 index 39), which becomes the neck's south-west face, the spit's ring and the neck's north-east lake-facing curve; the 1834 interior ring (the bar) is gone because the bar is no longer an island",
    "opens_between_local": "[[1163.84, -426.75], [1346.94, -435.95]]",
    "sources": [
     "wright_1834",
     "quaife_1913_swearingen"
    ],
    "provenance": {
     "derived_by": "generators/terrain_gen_e1830.py",
     "spec": "data/terrain/epochs/e1830_natural/terrain_spec.json",
     "base_trace": "data/terrain/epochs/e1834_harbor_cut/shoreline.geojson",
     "ticket": "T-2171"
    }
   },
   "geometry": {
    "type": "Polygon",
    "coordinates": [
     [
      [
       448219.74,
       4636870.21
      ],
      [
       448226.67,
       4636879.05
      ],
      [
       448228.69,
       4636891.41
      ],
      [
       448225.11,
       4636905.83
      ],
      [
       448228.53,
       4636918.95
      ],
      [
       448227.78,
       4636927.63
      ],
      [
       448239.32,
       4636982.22
      ],
      [
       448246.89,
       4637001.94
      ],
      [
       448257.97,
       4637017.38
      ],
      [
       448282.73,
       4637080.94
      ],
      [
       448293.01,
       4637115.21
      ],
      [
       448303.08,
       4637183.54
      ],
      [
       448312.66,
       4637216.34
      ],
      [
       448313.27,
       4637230.85
      ],
      [
       448309.66,
       4637251.07
      ],
      [
       448314.45,
       4637267.11
      ],
      [
       448314.34,
       4637286.67
      ],
      [
       448319.03,
       4637319.38
      ],
      [
       448317.58,
       4637328.04
      ],
      [
       448324.25,
       4637381.8
      ],
      [
       448323.4,
       4637407.15
      ],
      [
       448327.51,
       4637420.28
      ],
      [
       448330.13,
       4637449.32
      ],
      [
       448329.86,
       4637494.24
      ],
      [
       448321.26,
       4637531.02
      ],
      [
       448316.91,
       4637558.47
      ],
      [
       448317.53,
       4637571.52
      ],
      [
       448297.65,
       4637626.19
      ],
      [
       448296.17,
       4637639.92
      ],
      [
       448284.93,
       4637652.01
      ],
      [
       448247.86,
       4637661.39
      ],
      [
       448190.65,
       4637652.24
      ],
      [
       448145.36,
       4637634.64
      ],
      [
       448123.78,
       4637623.32
      ],
      [
       448097.41,
       4637595.24
      ],
      [
       448075.92,
       4637567.26
      ],
      [
       448059.34,
       4637536.48
      ],
      [
       448052.5,
       4637512.42
      ],
      [
       448031.72,
       4637485.18
      ],
      [
       448010.87,
       4637466.64
      ],
      [
       447983.02,
       4637452.29
      ],
      [
       447943.31,
       4637436.98
      ],
      [
       447935.68,
       4637428.85
      ],
      [
       447928.76,
       4637417.11
      ],
      [
       447926.73,
       4637406.2
      ],
      [
       447923.25,
       4637403.96
      ],
      [
       447911.28,
       4637420.38
      ],
      [
       447898.69,
       4637424.46
      ],
      [
       447872.88,
       4637418.86
      ],
      [
       447803.77,
       4637413.81
      ],
      [
       447769.54,
       4637416.72
      ],
      [
       447753.5,
       4637412.04
      ],
      [
       447739.54,
       4637411.75
      ],
      [
       447710.18,
       4637416.22
      ],
      [
       447673.17,
       4637416.18
      ],
      [
       447671.07,
       4637416.86
      ],
      [
       447668.25,
       4637420.43
      ],
      [
       447609.6,
       4637419.22
      ],
      [
       447582.33,
       4637424.45
      ],
      [
       447570.46,
       4637423.48
      ],
      [
       447539.87,
       4637401.11
      ],
      [
       447535.65,
       4637405.37
      ],
      [
       447537.7,
       4637412.05
      ],
      [
       447535.54,
       4637420.09
      ],
      [
       447528.51,
       4637421.96
      ],
      [
       447520.8,
       4637425.42
      ],
      [
       447468.41,
       4637428.69
      ],
      [
       447386.7,
       4637430.96
      ],
      [
       447386.29,
       4637508.08
      ],
      [
       447434.48,
       4637506.9
      ],
      [
       447481.3,
       4637502.07
      ],
      [
       447495.99,
       4637498.75
      ],
      [
       447503.72,
       4637490.22
      ],
      [
       447516.32,
       4637486.13
      ],
      [
       447543.48,
       4637497.56
      ],
      [
       447590.33,
       4637488.38
      ],
      [
       447624.56,
       4637486.19
      ],
      [
       447647.58,
       4637490.29
      ],
      [
       447704.86,
       4637488.58
      ],
      [
       447727.19,
       4637491.94
      ],
      [
       447849.39,
       4637494.46
      ],
      [
       447879.46,
       4637487.11
      ],
      [
       447903.9,
       4637488.34
      ],
      [
       447917.14,
       4637492.24
      ],
      [
       447938.03,
       4637503.54
      ],
      [
       447969.3,
       4637528.82
      ],
      [
       447994.25,
       4637561.95
      ],
      [
       448004.6,
       4637583.18
      ],
      [
       448059.4,
       4637645.18
      ],
      [
       448106.01,
       4637674.4
      ],
      [
       448131.79,
       4637684.36
      ],
      [
       448143.61,
       4637694.74
      ],
      [
       448152.01,
       4637691.3
      ],
      [
       448172.26,
       4637690.99
      ],
      [
       448238.52,
       4637704.68
      ],
      [
       448273.37,
       4637716.99
      ],
      [
       448281.89,
       4637717.169
      ],
      [
       448388.4,
       4637592.104
      ],
      [
       448398.05,
       4637536.23
      ],
      [
       448400.55,
       4637468.16
      ],
      [
       448398.58,
       4637447.83
      ],
      [
       448401.62,
       4637406.59
      ],
      [
       448396.9,
       4637377.51
      ],
      [
       448393.73,
       4637323.82
      ],
      [
       448399.46,
       4637300.02
      ],
      [
       448393.39,
       4637262.94
      ],
      [
       448393.65,
       4637219.47
      ],
      [
       448386.88,
       4637183.09
      ],
      [
       448381.35,
       4637173.56
      ],
      [
       448377.97,
       4637155.37
      ],
      [
       448380.31,
       4637113.39
      ],
      [
       448377.2,
       4637049.56
      ],
      [
       448380.88,
       4637018.47
      ],
      [
       448389.44,
       4636988.22
      ],
      [
       448395.1,
       4636976.01
      ],
      [
       448405.64,
       4636964.64
      ],
      [
       448419.64,
       4636959.85
      ],
      [
       448437.07,
       4636963.84
      ],
      [
       448463.46,
       4636988.3
      ],
      [
       448498.91,
       4637017.29
      ],
      [
       448505.84,
       4637026.13
      ],
      [
       448511.32,
       4637044.36
      ],
      [
       448523.75,
       4637067.8
      ],
      [
       448540.86,
       4637126.13
      ],
      [
       448542.85,
       4637144.29
      ],
      [
       448548.37,
       4637155.99
      ],
      [
       448562.3,
       4637278.75
      ],
      [
       448567.75,
       4637302.77
      ],
      [
       448566.23,
       4637323.03
      ],
      [
       448570.2,
       4637360.07
      ],
      [
       448564.43,
       4637391.11
      ],
      [
       448564.18,
       4637432.41
      ],
      [
       448559.78,
       4637468.55
      ],
      [
       448544.0,
       4637537.8
      ],
      [
       448522.05,
       4637588.79
      ],
      [
       448518.17,
       4637597.662
      ],
      [
       448514.184,
       4637606.533
      ],
      [
       448510.115,
       4637615.405
      ],
      [
       448505.985,
       4637624.277
      ],
      [
       448501.816,
       4637633.148
      ],
      [
       448497.631,
       4637642.02
      ],
      [
       448493.453,
       4637650.892
      ],
      [
       448489.304,
       4637659.763
      ],
      [
       448485.208,
       4637668.635
      ],
      [
       448481.186,
       4637677.507
      ],
      [
       448477.261,
       4637686.378
      ],
      [
       448473.456,
       4637695.25
      ],
      [
       448469.793,
       4637704.122
      ],
      [
       448466.295,
       4637712.993
      ],
      [
       448462.985,
       4637721.865
      ],
      [
       448459.885,
       4637730.737
      ],
      [
       448457.018,
       4637739.608
      ],
      [
       448454.405,
       4637748.48
      ],
      [
       448452.071,
       4637757.352
      ],
      [
       448450.038,
       4637766.223
      ],
      [
       448448.327,
       4637775.095
      ],
      [
       448446.962,
       4637783.967
      ],
      [
       448445.966,
       4637792.838
      ],
      [
       448445.36,
       4637801.71
      ],
      [
       448443.75,
       4637837.18
      ],
      [
       448445.74,
       4637856.06
      ],
      [
       448448.5,
       4637860.47
      ],
      [
       448450.42,
       4637890.94
      ],
      [
       448453.84,
       4637903.33
      ],
      [
       448447.29,
       4637946.68
      ],
      [
       448439.49,
       4637967.53
      ],
      [
       448426.82,
       4637983.93
      ],
      [
       448415.37,
       4638030.8
      ],
      [
       448414.31,
       4638091.65
      ],
      [
       448420.17,
       4638162.79
      ],
      [
       448416.41,
       4638208.36
      ],
      [
       448419.81,
       4638222.92
      ],
      [
       448417.59,
       4638244.62
      ],
      [
       448396.97,
       4638305.79
      ],
      [
       448380.06,
       4638332.25
      ],
      [
       448377.19,
       4638344.51
      ],
      [
       448361.02,
       4638362.29
      ],
      [
       448353.93,
       4638379.54
      ],
      [
       448315.87,
       4638439.62
      ],
      [
       448309.44,
       4638462.68
      ],
      [
       448293.15,
       4638502.2
      ],
      [
       448294.48,
       4638513.1
      ],
      [
       448298.65,
       4638516.8
      ],
      [
       448360.81,
       4638515.91
      ],
      [
       448383.88,
       4638510.59
      ],
      [
       448399.93,
       4638513.82
      ],
      [
       448416.72,
       4638509.1
      ],
      [
       448436.44,
       4638480.52
      ],
      [
       448489.38,
       4638385.96
      ],
      [
       448495.31,
       4638327.39
      ],
      [
       448509.53,
       4638284.92
      ],
      [
       448512.98,
       4638174.85
      ],
      [
       448527.38,
       4638102.68
      ],
      [
       448528.18,
       4638084.58
      ],
      [
       448532.45,
       4638071.63
      ],
      [
       448537.8,
       4637993.47
      ],
      [
       448543.56,
       4637965.33
      ],
      [
       448544.41,
       4637939.26
      ],
      [
       448550.14,
       4637915.47
      ],
      [
       448548.81,
       4637903.84
      ],
      [
       448553.79,
       4637888.0
      ],
      [
       448557.53,
       4637846.78
      ],
      [
       448578.1,
       4637794.3
      ],
      [
       448581.0,
       4637776.25
      ],
      [
       448599.49,
       4637719.38
      ],
      [
       448610.78,
       4637700.05
      ],
      [
       448617.19,
       4637678.44
      ],
      [
       448630.63,
       4637649.73
      ],
      [
       448633.53,
       4637633.13
      ],
      [
       448647.58,
       4637618.2
      ],
      [
       448630.9,
       4637604.81
      ],
      [
       448626.79,
       4637591.68
      ],
      [
       448637.43,
       4637564.36
      ],
      [
       448647.97,
       4637552.26
      ],
      [
       448650.19,
       4637531.29
      ],
      [
       448647.55,
       4637505.88
      ],
      [
       448654.42,
       4637408.19
      ],
      [
       448653.33,
       4637355.99
      ],
      [
       448655.73,
       4637305.32
      ],
      [
       448651.25,
       4637236.38
      ],
      [
       448654.11,
       4637224.12
      ],
      [
       448648.66,
       4637202.27
      ],
      [
       448651.53,
       4637187.84
      ],
      [
       448643.23,
       4637175.35
      ],
      [
       448633.03,
       4637128.03
      ],
      [
       448619.99,
       4637090.08
      ],
      [
       448618.66,
       4637078.46
      ],
      [
       448611.11,
       4637056.56
      ],
      [
       448600.02,
       4637042.57
      ],
      [
       448592.52,
       4637012.7
      ],
      [
       448559.91,
       4636976.52
      ],
      [
       448556.47,
       4636967.75
      ],
      [
       448525.91,
       4636939.58
      ],
      [
       448501.53,
       4636928.94
      ],
      [
       448484.07,
       4636927.85
      ],
      [
       448446.42,
       4636917.65
      ],
      [
       448428.26,
       4636918.0
      ],
      [
       448413.57,
       4636922.77
      ],
      [
       448405.84,
       4636930.58
      ],
      [
       448383.42,
       4636942.44
      ],
      [
       448372.88,
       4636954.54
      ],
      [
       448365.79,
       4636971.06
      ],
      [
       448358.76,
       4636979.61
      ],
      [
       448351.06,
       4636983.07
      ],
      [
       448341.28,
       4636982.87
      ],
      [
       448333.62,
       4636979.09
      ],
      [
       448326.0,
       4636969.51
      ],
      [
       448310.27,
       4636913.39
      ],
      [
       448311.76,
       4636897.48
      ],
      [
       448307.63,
       4636887.97
      ],
      [
       448307.69,
       4636877.83
      ],
      [
       448311.22,
       4636869.93
      ],
      [
       448319.65,
       4636862.86
      ],
      [
       448328.74,
       4636860.87
      ],
      [
       448337.8,
       4636863.23
      ],
      [
       448347.6,
       4636860.54
      ],
      [
       448382.5,
       4636861.98
      ],
      [
       448400.69,
       4636858.01
      ],
      [
       448422.33,
       4636858.46
      ],
      [
       448460.13,
       4636844.75
      ],
      [
       448470.64,
       4636837.72
      ],
      [
       448493.01,
       4636833.83
      ],
      [
       448511.24,
       4636822.61
      ],
      [
       448544.78,
       4636819.68
      ],
      [
       448549.69,
       4636814.71
      ],
      [
       448563.21,
       4636773.68
      ],
      [
       448569.95,
       4636696.29
      ],
      [
       448567.96,
       4636679.58
      ],
      [
       448573.01,
       4636652.15
      ],
      [
       448571.74,
       4636631.1
      ],
      [
       448575.49,
       4636586.98
      ],
      [
       448575.75,
       4636543.5
      ],
      [
       448569.04,
       4636496.99
      ],
      [
       448573.45,
       4636460.85
      ],
      [
       448570.95,
       4636410.79
      ],
      [
       448573.2,
       4636385.48
      ],
      [
       448566.09,
       4636288.95
      ],
      [
       448562.69,
       4636272.94
      ],
      [
       448561.54,
       4636231.61
      ],
      [
       448548.3,
       4636109.6
      ],
      [
       448543.27,
       4636016.01
      ],
      [
       448537.86,
       4635984.74
      ],
      [
       448540.73,
       4635973.2
      ],
      [
       448540.11,
       4635960.15
      ],
      [
       448529.55,
       4635855.58
      ],
      [
       448529.95,
       4635788.2
      ],
      [
       448524.18,
       4635701.84
      ],
      [
       448524.78,
       4635601.85
      ],
      [
       448528.35,
       4635588.16
      ],
      [
       448525.74,
       4635557.67
      ],
      [
       448528.62,
       4635542.51
      ],
      [
       448526.92,
       4635476.53
      ],
      [
       448532.92,
       4635407.09
      ],
      [
       448530.25,
       4635385.3
      ],
      [
       448535.29,
       4635360.76
      ],
      [
       448526.34,
       4635338.84
      ],
      [
       448528.49,
       4635329.46
      ],
      [
       448539.75,
       4635314.48
      ],
      [
       448535.78,
       4635278.16
      ],
      [
       448531.61,
       4635273.73
      ],
      [
       448519.69,
       4635282.9
      ],
      [
       448505.71,
       4635284.06
      ],
      [
       448498.05,
       4635280.28
      ],
      [
       448489.05,
       4635267.78
      ],
      [
       448480.69,
       4635263.98
      ],
      [
       448470.98,
       4635252.91
      ],
      [
       448459.82,
       4635251.23
      ],
      [
       448447.98,
       4635244.46
      ],
      [
       448432.63,
       4635241.97
      ],
      [
       448420.1,
       4635235.92
      ],
      [
       448413.11,
       4635237.22
      ],
      [
       448410.99,
       4635241.52
      ],
      [
       448415.81,
       4635252.49
      ],
      [
       448418.41,
       4635285.16
      ],
      [
       448404.27,
       4635313.85
      ],
      [
       448403.47,
       4635331.95
      ],
      [
       448396.41,
       4635344.85
      ],
      [
       448396.31,
       4635360.79
      ],
      [
       448389.86,
       4635389.64
      ],
      [
       448390.83,
       4635461.4
      ],
      [
       448386.34,
       4635511.31
      ],
      [
       448387.61,
       4635533.08
      ],
      [
       448393.09,
       4635550.58
      ],
      [
       448389.48,
       4635570.07
      ],
      [
       448390.02,
       4635596.17
      ],
      [
       448396.69,
       4635649.93
      ],
      [
       448396.35,
       4635706.45
      ],
      [
       448402.53,
       4635724.69
      ],
      [
       448397.56,
       4635739.08
      ],
      [
       448397.46,
       4635755.02
      ],
      [
       448404.29,
       4635781.25
      ],
      [
       448401.43,
       4635792.06
      ],
      [
       448410.8,
       4635861.1
      ],
      [
       448410.57,
       4635900.22
      ],
      [
       448421.27,
       4635979.43
      ],
      [
       448423.08,
       4636028.02
      ],
      [
       448433.89,
       4636089.12
      ],
      [
       448437.79,
       4636137.75
      ],
      [
       448441.12,
       4636163.9
      ],
      [
       448452.84,
       4636190.23
      ],
      [
       448452.76,
       4636203.28
      ],
      [
       448456.18,
       4636215.67
      ],
      [
       448452.59,
       4636232.26
      ],
      [
       448461.39,
       4636279.54
      ],
      [
       448459.24,
       4636288.92
      ],
      [
       448459.76,
       4636319.36
      ],
      [
       448465.94,
       4636336.16
      ],
      [
       448465.81,
       4636357.9
      ],
      [
       448460.1,
       4636378.79
      ],
      [
       448458.5,
       4636413.54
      ],
      [
       448449.05,
       4636474.94
      ],
      [
       448450.94,
       4636509.77
      ],
      [
       448459.73,
       4636559.22
      ],
      [
       448459.51,
       4636595.45
      ],
      [
       448468.99,
       4636645.65
      ],
      [
       448467.98,
       4636698.53
      ],
      [
       448462.24,
       4636724.5
      ],
      [
       448452.34,
       4636743.86
      ],
      [
       448439.02,
       4636753.73
      ],
      [
       448378.91,
       4636761.18
      ],
      [
       448359.37,
       4636759.33
      ],
      [
       448341.2,
       4636761.85
      ],
      [
       448319.51,
       4636768.65
      ],
      [
       448298.49,
       4636779.81
      ],
      [
       448280.95,
       4636793.94
      ],
      [
       448252.13,
       4636824.51
      ],
      [
       448245.68,
       4636853.36
      ],
      [
       448219.74,
       4636870.21
      ]
     ]
    ]
   }
  },
  {
   "type": "Feature",
   "id": "spit_and_isthmus_1812",
   "properties": {
    "kind": "spit",
    "name": "The baymouth spit and the neck that joined it to the north shore",
    "confidence": "reconstructed",
    "derivation": "river-side neck offset by half isthmus_1812.width_ft from the gap line; the long spit arc to north_lake_shore_1812.curve.spit_vertex_index; a reconstructed monotone curve to the carried north shore; closed against the mainland. width_ft controls the river face, not full land width",
    "river_side_offset_m": 15.24,
    "sources": [
     "wright_1834",
     "quaife_1913_swearingen"
    ],
    "provenance": {
     "derived_by": "generators/terrain_gen_e1830.py",
     "spec": "data/terrain/epochs/e1830_natural/terrain_spec.json",
     "base_trace": "data/terrain/epochs/e1834_harbor_cut/shoreline.geojson",
     "ticket": "T-2171"
    }
   },
   "geometry": {
    "type": "Polygon",
    "coordinates": [
     [
      [
       448281.89,
       4637717.169
      ],
      [
       448388.4,
       4637592.104
      ],
      [
       448398.05,
       4637536.23
      ],
      [
       448400.55,
       4637468.16
      ],
      [
       448398.58,
       4637447.83
      ],
      [
       448401.62,
       4637406.59
      ],
      [
       448396.9,
       4637377.51
      ],
      [
       448393.73,
       4637323.82
      ],
      [
       448399.46,
       4637300.02
      ],
      [
       448393.39,
       4637262.94
      ],
      [
       448393.65,
       4637219.47
      ],
      [
       448386.88,
       4637183.09
      ],
      [
       448381.35,
       4637173.56
      ],
      [
       448377.97,
       4637155.37
      ],
      [
       448380.31,
       4637113.39
      ],
      [
       448377.2,
       4637049.56
      ],
      [
       448380.88,
       4637018.47
      ],
      [
       448389.44,
       4636988.22
      ],
      [
       448395.1,
       4636976.01
      ],
      [
       448405.64,
       4636964.64
      ],
      [
       448419.64,
       4636959.85
      ],
      [
       448437.07,
       4636963.84
      ],
      [
       448463.46,
       4636988.3
      ],
      [
       448498.91,
       4637017.29
      ],
      [
       448505.84,
       4637026.13
      ],
      [
       448511.32,
       4637044.36
      ],
      [
       448523.75,
       4637067.8
      ],
      [
       448540.86,
       4637126.13
      ],
      [
       448542.85,
       4637144.29
      ],
      [
       448548.37,
       4637155.99
      ],
      [
       448562.3,
       4637278.75
      ],
      [
       448567.75,
       4637302.77
      ],
      [
       448566.23,
       4637323.03
      ],
      [
       448570.2,
       4637360.07
      ],
      [
       448564.43,
       4637391.11
      ],
      [
       448564.18,
       4637432.41
      ],
      [
       448559.78,
       4637468.55
      ],
      [
       448544.0,
       4637537.8
      ],
      [
       448522.05,
       4637588.79
      ],
      [
       448518.17,
       4637597.662
      ],
      [
       448514.184,
       4637606.533
      ],
      [
       448510.115,
       4637615.405
      ],
      [
       448505.985,
       4637624.277
      ],
      [
       448501.816,
       4637633.148
      ],
      [
       448497.631,
       4637642.02
      ],
      [
       448493.453,
       4637650.892
      ],
      [
       448489.304,
       4637659.763
      ],
      [
       448485.208,
       4637668.635
      ],
      [
       448481.186,
       4637677.507
      ],
      [
       448477.261,
       4637686.378
      ],
      [
       448473.456,
       4637695.25
      ],
      [
       448469.793,
       4637704.122
      ],
      [
       448466.295,
       4637712.993
      ],
      [
       448462.985,
       4637721.865
      ],
      [
       448459.885,
       4637730.737
      ],
      [
       448457.018,
       4637739.608
      ],
      [
       448454.405,
       4637748.48
      ],
      [
       448452.071,
       4637757.352
      ],
      [
       448450.038,
       4637766.223
      ],
      [
       448448.327,
       4637775.095
      ],
      [
       448446.962,
       4637783.967
      ],
      [
       448445.966,
       4637792.838
      ],
      [
       448445.36,
       4637801.71
      ],
      [
       448307.63,
       4637710.45
      ],
      [
       448285.24,
       4637717.24
      ],
      [
       448281.89,
       4637717.169
      ]
     ]
    ]
   }
  },
  {
   "type": "Feature",
   "id": "spit_and_isthmus_shore_1812",
   "properties": {
    "kind": "shore",
    "name": "The waterline round the neck and the spit",
    "confidence": "reconstructed",
    "derivation": "the neck's south-west face from the north bank, the spit's ring the long way round to the outer join, then the reconstructed lake curve to the north shore",
    "meets_north_bank_local": "[1209.19, 321.37]",
    "meets_north_lake_shore_local": "[1372.66, 405.91]",
    "sources": [
     "wright_1834",
     "quaife_1913_swearingen"
    ],
    "provenance": {
     "derived_by": "generators/terrain_gen_e1830.py",
     "spec": "data/terrain/epochs/e1830_natural/terrain_spec.json",
     "base_trace": "data/terrain/epochs/e1834_harbor_cut/shoreline.geojson",
     "ticket": "T-2171"
    }
   },
   "geometry": {
    "type": "LineString",
    "coordinates": [
     [
      448281.89,
      4637717.169
     ],
     [
      448388.4,
      4637592.104
     ],
     [
      448398.05,
      4637536.23
     ],
     [
      448400.55,
      4637468.16
     ],
     [
      448398.58,
      4637447.83
     ],
     [
      448401.62,
      4637406.59
     ],
     [
      448396.9,
      4637377.51
     ],
     [
      448393.73,
      4637323.82
     ],
     [
      448399.46,
      4637300.02
     ],
     [
      448393.39,
      4637262.94
     ],
     [
      448393.65,
      4637219.47
     ],
     [
      448386.88,
      4637183.09
     ],
     [
      448381.35,
      4637173.56
     ],
     [
      448377.97,
      4637155.37
     ],
     [
      448380.31,
      4637113.39
     ],
     [
      448377.2,
      4637049.56
     ],
     [
      448380.88,
      4637018.47
     ],
     [
      448389.44,
      4636988.22
     ],
     [
      448395.1,
      4636976.01
     ],
     [
      448405.64,
      4636964.64
     ],
     [
      448419.64,
      4636959.85
     ],
     [
      448437.07,
      4636963.84
     ],
     [
      448463.46,
      4636988.3
     ],
     [
      448498.91,
      4637017.29
     ],
     [
      448505.84,
      4637026.13
     ],
     [
      448511.32,
      4637044.36
     ],
     [
      448523.75,
      4637067.8
     ],
     [
      448540.86,
      4637126.13
     ],
     [
      448542.85,
      4637144.29
     ],
     [
      448548.37,
      4637155.99
     ],
     [
      448562.3,
      4637278.75
     ],
     [
      448567.75,
      4637302.77
     ],
     [
      448566.23,
      4637323.03
     ],
     [
      448570.2,
      4637360.07
     ],
     [
      448564.43,
      4637391.11
     ],
     [
      448564.18,
      4637432.41
     ],
     [
      448559.78,
      4637468.55
     ],
     [
      448544.0,
      4637537.8
     ],
     [
      448522.05,
      4637588.79
     ],
     [
      448518.17,
      4637597.662
     ],
     [
      448514.184,
      4637606.533
     ],
     [
      448510.115,
      4637615.405
     ],
     [
      448505.985,
      4637624.277
     ],
     [
      448501.816,
      4637633.148
     ],
     [
      448497.631,
      4637642.02
     ],
     [
      448493.453,
      4637650.892
     ],
     [
      448489.304,
      4637659.763
     ],
     [
      448485.208,
      4637668.635
     ],
     [
      448481.186,
      4637677.507
     ],
     [
      448477.261,
      4637686.378
     ],
     [
      448473.456,
      4637695.25
     ],
     [
      448469.793,
      4637704.122
     ],
     [
      448466.295,
      4637712.993
     ],
     [
      448462.985,
      4637721.865
     ],
     [
      448459.885,
      4637730.737
     ],
     [
      448457.018,
      4637739.608
     ],
     [
      448454.405,
      4637748.48
     ],
     [
      448452.071,
      4637757.352
     ],
     [
      448450.038,
      4637766.223
     ],
     [
      448448.327,
      4637775.095
     ],
     [
      448446.962,
      4637783.967
     ],
     [
      448445.966,
      4637792.838
     ],
     [
      448445.36,
      4637801.71
     ]
    ]
   }
  },
  {
   "type": "Feature",
   "id": "north_lake_shore_1812",
   "properties": {
    "kind": "shore",
    "name": "The lake shore north of the spit root",
    "confidence": "reconstructed",
    "derivation": "1834 north_shore_harbor_reach from index 39 north; the reconstructed outer curve meets this run at its first vertex",
    "curve_from_local": "[1449.35, 192.99]",
    "curve_to_local": "[1372.66, 405.91]",
    "sources": [
     "wright_1834",
     "whistler_1808_fort_dearborn_draught",
     "harrison_1830_river_mouth"
    ],
    "provenance": {
     "derived_by": "generators/terrain_gen_e1830.py",
     "spec": "data/terrain/epochs/e1830_natural/terrain_spec.json",
     "base_trace": "data/terrain/epochs/e1834_harbor_cut/shoreline.geojson",
     "ticket": "T-2171"
    }
   },
   "geometry": {
    "type": "LineString",
    "coordinates": [
     [
      448445.36,
      4637801.71
     ],
     [
      448443.75,
      4637837.18
     ],
     [
      448445.74,
      4637856.06
     ],
     [
      448448.5,
      4637860.47
     ],
     [
      448450.42,
      4637890.94
     ],
     [
      448453.84,
      4637903.33
     ],
     [
      448447.29,
      4637946.68
     ],
     [
      448439.49,
      4637967.53
     ],
     [
      448426.82,
      4637983.93
     ],
     [
      448415.37,
      4638030.8
     ],
     [
      448414.31,
      4638091.65
     ],
     [
      448420.17,
      4638162.79
     ],
     [
      448416.41,
      4638208.36
     ],
     [
      448419.81,
      4638222.92
     ],
     [
      448417.59,
      4638244.62
     ],
     [
      448396.97,
      4638305.79
     ],
     [
      448380.06,
      4638332.25
     ],
     [
      448377.19,
      4638344.51
     ],
     [
      448361.02,
      4638362.29
     ],
     [
      448353.93,
      4638379.54
     ],
     [
      448315.87,
      4638439.62
     ],
     [
      448309.44,
      4638462.68
     ],
     [
      448293.15,
      4638502.2
     ],
     [
      448294.48,
      4638513.1
     ]
    ]
   }
  }
 ]
}
