{
 "type": "FeatureCollection",
 "name": "e1871_postfire_shoreline",
 "crs": {
  "type": "name",
  "properties": {
   "name": "urn:ogc:def:crs:EPSG::26916"
  }
 },
 "_doc": "GENERATED by tools/trace_ic_edge_1904.py -- do not hand-edit. The lake edge the 1904 Prairie Avenue scene stands on (shoreline state shore_1880s_ic_edge, T-1250), traced off Sanborn 1911 vol. 3 sheets 20 and 28 and Robinson 1886 plate 10, each georeferenced by tools/georef_prairie_1904.py. The tool's docstring carries the argument; `measured` carries the numbers it rests on.",
 "measured": {
  "north_overlap_sheet_20_vs_1886": {
   "stations_n_m": [
    -2950.0,
    -2960.0,
    -2970.0,
    -2980.0,
    -2990.0,
    -3000.0
   ],
   "e_1911_m": [
    1499.6,
    1499.7,
    1500.0,
    1503.0,
    1506.1,
    1509.3
   ],
   "e_1886_m": [
    1480.9,
    1481.1,
    1483.2,
    1489.0,
    1489.7,
    1491.7
   ],
   "offset_m": [
    18.7,
    18.6,
    16.8,
    14.0,
    16.4,
    17.6
   ],
   "mean_offset_m": 17.0,
   "min_offset_m": 14.0,
   "max_offset_m": 18.7
  },
  "south_overlap_sheet_28_vs_1886": {
   "stations_n_m": [
    -3170.0,
    -3180.0,
    -3190.0,
    -3200.0,
    -3210.0,
    -3220.0
   ],
   "e_1911_m": [
    1560.8,
    1563.9,
    1567.8,
    1570.1,
    1573.2,
    1576.4
   ],
   "e_1886_m": [
    1540.8,
    1546.1,
    1548.6,
    1549.6,
    1552.0,
    1555.7
   ],
   "offset_m": [
    20.0,
    17.8,
    19.2,
    20.5,
    21.2,
    20.7
   ],
   "mean_offset_m": 19.9,
   "min_offset_m": 17.8,
   "max_offset_m": 21.2
  },
  "track_parallel": {
   "what": "sheet 28: the edge's column minus the easternmost drawn track's, at rows where both are drawn, and the track's column below the run against the run's straight continuation less that mean offset",
   "rows_with_edge": [
    1200,
    1500,
    1800,
    2100,
    2400
   ],
   "offset_px": [
    326.4,
    325.5,
    323.6,
    322.6,
    324.1
   ],
   "mean_offset_px": 324.4,
   "rows_below_run": [
    2900,
    3100,
    3300,
    3500,
    3700
   ],
   "track_departure_px": [
    5.9,
    -0.4,
    0.4,
    1.2,
    -0.1
   ],
   "neatline_px": [
    6153.4,
    4202.7
   ]
  },
  "segment_E_bearing_deg_east_of_south": 17.5,
  "refused_proxy": "the modern Metra / Canadian National corridor's easternmost track stands 78 m east of the 1911 edge at 18th Street (OpenStreetMap, 2026), on the 1920s lakefill; it is read for nothing here"
 },
 "features": [
  {
   "type": "Feature",
   "id": "shore_1904_ic_edge",
   "properties": {
    "kind": "shore",
    "role": "scene_line",
    "name": "Lake Michigan's edge beside the Illinois Central, 1 July 1904",
    "address_date": "1904-07-01",
    "confidence": "reconstructed",
    "confidence_note": "reconstructed inside the band the 1886 and 1911 sheets bound (segments A-E) and past the last sheet on a bearing alone (F, unbounded)",
    "liberty": "L287",
    "segments": [
     {
      "id": "A",
      "n_from": -2900.0,
      "n_to": -2945.2,
      "confidence": "reconstructed",
      "basis": "Robinson 1886's line carried 17.0 m east, the mean offset between the two sheets over sheet 20's run; the 1911 sheet draws nothing north of the 16th Street row"
     },
     {
      "id": "B",
      "n_from": -2945.2,
      "n_to": -3004.7,
      "confidence": "reconstructed",
      "basis": "on the band's eastern bound: the 1911 edge traced off Sanborn sheet 20",
      "source_id": "sanborn_1911_chicago_v3_sheet_20"
     },
     {
      "id": "C",
      "n_from": -3004.7,
      "n_to": -3165.2,
      "confidence": "reconstructed",
      "basis": "neither 1911 sheet draws the edge here. Robinson 1886's planform, carried east by an offset running linearly from 17.0 m (the north overlap's mean) to 19.9 m (the south's)"
     },
     {
      "id": "D",
      "n_from": -3165.2,
      "n_to": -3287.2,
      "confidence": "reconstructed",
      "basis": "on the band's eastern bound: the 1911 edge traced off Sanborn sheet 28",
      "source_id": "sanborn_1911_chicago_v3_sheet_28"
     },
     {
      "id": "E",
      "n_from": -3287.2,
      "n_to": -3365.2,
      "confidence": "reconstructed",
      "basis": "sheet 28's run carried straight on to where its easternmost drawn track reaches the paper's edge: that track runs parallel to the edge at the measured offset the whole length of the run and straight on below it (see measured.track_parallel)"
     },
     {
      "id": "F",
      "n_from": -3365.2,
      "n_to": -3800.0,
      "confidence": "reconstructed",
      "unbounded": true,
      "basis": "the same bearing to the box floor and nothing else: no sheet this project holds draws the lake east of Calumet Avenue between 20th Street and Cermak Road, so no band bounds it"
     }
    ],
    "sources": [
     "robinson_1886_chicago_plate_10",
     "sanborn_1911_chicago_v3_sheet_20",
     "sanborn_1911_chicago_v3_sheet_28"
    ],
    "note": "The waterline the 1904 scene renders. On the band's eastern (1911) bound where either 1911 sheet draws the edge, and elsewhere the 1886 planform moved by the offsets the two sheets measure where both draw it -- see the tool's docstring for why the eastern bound, and ic_edge_1886_1911_band for how far apart the bounds are."
   },
   "geometry": {
    "type": "LineString",
    "coordinates": [
     [
      448553.1,
      4634495.8
     ],
     [
      448555.9,
      4634485.8
     ],
     [
      448561.2,
      4634475.8
     ],
     [
      448562.5,
      4634465.8
     ],
     [
      448564.4,
      4634455.8
     ],
     [
      448572.3,
      4634450.6
     ],
     [
      448572.3,
      4634449.4
     ],
     [
      448572.3,
      4634448.1
     ],
     [
      448572.3,
      4634446.8
     ],
     [
      448572.4,
      4634445.6
     ],
     [
      448572.4,
      4634444.3
     ],
     [
      448572.4,
      4634443.0
     ],
     [
      448572.4,
      4634441.8
     ],
     [
      448572.4,
      4634440.5
     ],
     [
      448572.4,
      4634439.2
     ],
     [
      448572.4,
      4634438.0
     ],
     [
      448572.4,
      4634436.7
     ],
     [
      448572.4,
      4634435.4
     ],
     [
      448572.5,
      4634434.1
     ],
     [
      448572.5,
      4634432.9
     ],
     [
      448572.5,
      4634431.6
     ],
     [
      448572.5,
      4634430.3
     ],
     [
      448572.5,
      4634429.1
     ],
     [
      448572.5,
      4634427.8
     ],
     [
      448572.5,
      4634426.5
     ],
     [
      448572.8,
      4634425.3
     ],
     [
      448573.2,
      4634424.0
     ],
     [
      448573.6,
      4634422.7
     ],
     [
      448574.0,
      4634421.5
     ],
     [
      448574.4,
      4634420.2
     ],
     [
      448574.8,
      4634418.9
     ],
     [
      448575.2,
      4634417.7
     ],
     [
      448575.5,
      4634416.4
     ],
     [
      448575.9,
      4634415.1
     ],
     [
      448576.3,
      4634413.9
     ],
     [
      448576.7,
      4634412.6
     ],
     [
      448577.1,
      4634411.4
     ],
     [
      448577.5,
      4634410.1
     ],
     [
      448577.9,
      4634408.8
     ],
     [
      448578.3,
      4634407.6
     ],
     [
      448578.7,
      4634406.3
     ],
     [
      448579.1,
      4634405.0
     ],
     [
      448579.5,
      4634403.8
     ],
     [
      448579.9,
      4634402.5
     ],
     [
      448580.2,
      4634401.2
     ],
     [
      448580.6,
      4634400.0
     ],
     [
      448581.0,
      4634398.7
     ],
     [
      448581.4,
      4634397.5
     ],
     [
      448581.9,
      4634396.2
     ],
     [
      448582.3,
      4634394.9
     ],
     [
      448582.6,
      4634393.7
     ],
     [
      448583.0,
      4634392.4
     ],
     [
      448583.3,
      4634391.1
     ],
     [
      448584.3,
      4634385.8
     ],
     [
      448587.2,
      4634375.8
     ],
     [
      448591.4,
      4634365.8
     ],
     [
      448593.5,
      4634355.8
     ],
     [
      448596.6,
      4634345.8
     ],
     [
      448599.6,
      4634335.8
     ],
     [
      448604.1,
      4634325.8
     ],
     [
      448605.8,
      4634315.8
     ],
     [
      448608.8,
      4634305.8
     ],
     [
      448611.9,
      4634295.8
     ],
     [
      448615.0,
      4634285.8
     ],
     [
      448619.1,
      4634275.8
     ],
     [
      448622.1,
      4634265.8
     ],
     [
      448624.6,
      4634255.8
     ],
     [
      448630.6,
      4634245.8
     ],
     [
      448632.3,
      4634235.8
     ],
     [
      448632.0,
      4634230.6
     ],
     [
      448632.4,
      4634229.3
     ],
     [
      448632.8,
      4634228.1
     ],
     [
      448633.2,
      4634226.8
     ],
     [
      448633.6,
      4634225.6
     ],
     [
      448633.9,
      4634224.3
     ],
     [
      448634.3,
      4634223.0
     ],
     [
      448634.7,
      4634221.8
     ],
     [
      448635.1,
      4634220.5
     ],
     [
      448635.5,
      4634219.3
     ],
     [
      448635.9,
      4634218.0
     ],
     [
      448636.3,
      4634216.8
     ],
     [
      448636.7,
      4634215.5
     ],
     [
      448637.1,
      4634214.2
     ],
     [
      448638.1,
      4634213.0
     ],
     [
      448640.1,
      4634211.8
     ],
     [
      448638.9,
      4634210.5
     ],
     [
      448638.7,
      4634209.2
     ],
     [
      448641.8,
      4634208.0
     ],
     [
      448639.2,
      4634206.7
     ],
     [
      448641.0,
      4634205.5
     ],
     [
      448640.2,
      4634204.2
     ],
     [
      448640.6,
      4634202.9
     ],
     [
      448641.0,
      4634201.7
     ],
     [
      448641.3,
      4634200.4
     ],
     [
      448641.7,
      4634199.2
     ],
     [
      448642.1,
      4634197.9
     ],
     [
      448642.5,
      4634196.6
     ],
     [
      448642.9,
      4634195.4
     ],
     [
      448643.3,
      4634194.1
     ],
     [
      448643.7,
      4634192.9
     ],
     [
      448644.1,
      4634191.6
     ],
     [
      448644.5,
      4634190.4
     ],
     [
      448644.9,
      4634189.1
     ],
     [
      448645.3,
      4634187.8
     ],
     [
      448645.7,
      4634186.6
     ],
     [
      448646.1,
      4634185.3
     ],
     [
      448646.5,
      4634184.1
     ],
     [
      448646.9,
      4634182.8
     ],
     [
      448647.3,
      4634181.6
     ],
     [
      448647.7,
      4634180.3
     ],
     [
      448648.1,
      4634179.0
     ],
     [
      448648.4,
      4634177.8
     ],
     [
      448648.8,
      4634176.5
     ],
     [
      448649.2,
      4634175.3
     ],
     [
      448649.6,
      4634174.0
     ],
     [
      448650.0,
      4634172.8
     ],
     [
      448650.4,
      4634171.5
     ],
     [
      448650.8,
      4634170.2
     ],
     [
      448651.2,
      4634169.0
     ],
     [
      448651.6,
      4634167.7
     ],
     [
      448652.0,
      4634166.5
     ],
     [
      448652.4,
      4634165.2
     ],
     [
      448652.8,
      4634164.0
     ],
     [
      448653.2,
      4634162.7
     ],
     [
      448653.6,
      4634161.4
     ],
     [
      448654.0,
      4634160.2
     ],
     [
      448654.4,
      4634158.9
     ],
     [
      448654.8,
      4634157.7
     ],
     [
      448655.2,
      4634156.4
     ],
     [
      448655.6,
      4634155.2
     ],
     [
      448656.0,
      4634153.9
     ],
     [
      448656.4,
      4634152.6
     ],
     [
      448656.8,
      4634151.4
     ],
     [
      448657.1,
      4634150.1
     ],
     [
      448657.5,
      4634148.9
     ],
     [
      448657.9,
      4634147.6
     ],
     [
      448658.3,
      4634146.4
     ],
     [
      448658.7,
      4634145.1
     ],
     [
      448659.1,
      4634143.8
     ],
     [
      448659.5,
      4634142.6
     ],
     [
      448659.9,
      4634141.3
     ],
     [
      448660.3,
      4634140.1
     ],
     [
      448660.7,
      4634138.8
     ],
     [
      448661.1,
      4634137.6
     ],
     [
      448661.5,
      4634136.3
     ],
     [
      448661.9,
      4634135.0
     ],
     [
      448662.3,
      4634133.8
     ],
     [
      448662.7,
      4634132.5
     ],
     [
      448663.1,
      4634131.3
     ],
     [
      448663.5,
      4634130.0
     ],
     [
      448663.9,
      4634128.8
     ],
     [
      448664.3,
      4634127.5
     ],
     [
      448664.7,
      4634126.2
     ],
     [
      448665.1,
      4634125.0
     ],
     [
      448665.5,
      4634123.7
     ],
     [
      448665.9,
      4634122.5
     ],
     [
      448666.3,
      4634121.2
     ],
     [
      448666.7,
      4634120.0
     ],
     [
      448667.1,
      4634118.7
     ],
     [
      448667.5,
      4634117.4
     ],
     [
      448667.9,
      4634116.2
     ],
     [
      448668.3,
      4634114.9
     ],
     [
      448668.7,
      4634113.7
     ],
     [
      448669.1,
      4634112.4
     ],
     [
      448669.5,
      4634111.2
     ],
     [
      448669.9,
      4634109.9
     ],
     [
      448670.3,
      4634108.6
     ],
     [
      448671.2,
      4634105.8
     ],
     [
      448674.3,
      4634095.8
     ],
     [
      448677.5,
      4634085.8
     ],
     [
      448680.6,
      4634075.8
     ],
     [
      448683.8,
      4634065.8
     ],
     [
      448686.9,
      4634055.8
     ],
     [
      448690.1,
      4634045.8
     ],
     [
      448693.2,
      4634035.8
     ],
     [
      448694.9,
      4634030.6
     ],
     [
      448696.4,
      4634025.8
     ],
     [
      448699.6,
      4634015.8
     ],
     [
      448702.7,
      4634005.8
     ],
     [
      448705.9,
      4633995.8
     ],
     [
      448709.0,
      4633985.8
     ],
     [
      448712.2,
      4633975.8
     ],
     [
      448715.3,
      4633965.8
     ],
     [
      448718.5,
      4633955.8
     ],
     [
      448721.6,
      4633945.8
     ],
     [
      448724.8,
      4633935.8
     ],
     [
      448728.0,
      4633925.8
     ],
     [
      448731.1,
      4633915.8
     ],
     [
      448734.3,
      4633905.8
     ],
     [
      448737.4,
      4633895.8
     ],
     [
      448740.6,
      4633885.8
     ],
     [
      448743.7,
      4633875.8
     ],
     [
      448746.9,
      4633865.8
     ],
     [
      448750.0,
      4633855.8
     ],
     [
      448753.2,
      4633845.8
     ],
     [
      448756.4,
      4633835.8
     ],
     [
      448759.5,
      4633825.8
     ],
     [
      448762.7,
      4633815.8
     ],
     [
      448765.8,
      4633805.8
     ],
     [
      448769.0,
      4633795.8
     ],
     [
      448772.1,
      4633785.8
     ],
     [
      448775.3,
      4633775.8
     ],
     [
      448778.4,
      4633765.8
     ],
     [
      448781.6,
      4633755.8
     ],
     [
      448784.8,
      4633745.8
     ],
     [
      448787.9,
      4633735.8
     ],
     [
      448791.1,
      4633725.8
     ],
     [
      448794.2,
      4633715.8
     ],
     [
      448797.4,
      4633705.8
     ],
     [
      448800.5,
      4633695.8
     ],
     [
      448803.7,
      4633685.8
     ],
     [
      448806.8,
      4633675.8
     ],
     [
      448810.0,
      4633665.8
     ],
     [
      448813.2,
      4633655.8
     ],
     [
      448816.3,
      4633645.8
     ],
     [
      448819.5,
      4633635.8
     ],
     [
      448822.6,
      4633625.8
     ],
     [
      448825.8,
      4633615.8
     ],
     [
      448828.9,
      4633605.8
     ],
     [
      448832.1,
      4633595.8
     ]
    ]
   }
  },
  {
   "type": "Feature",
   "id": "ic_edge_1911_sheet_20",
   "properties": {
    "kind": "lake_edge_observation",
    "name": "Lake edge, Sanborn 1911 sheet 20",
    "observed_date": "1911-01-01",
    "confidence": "attested",
    "confidence_note": "attested for 1911, the date of the sheet it is traced off; for 1904 it is an observation from the wrong date, and a bound",
    "sources": [
     "sanborn_1911_chicago_v3_sheet_20"
    ],
    "gcp_file": "data/traces/gcp/sanborn_1911_v3_sheet_20_gcps.json",
    "note": "the pen line with the lake's blue wash east of it, from the ruled line on the 16th Street row -- which this trace does not read as shore -- south until the sheet stops drawing it"
   },
   "geometry": {
    "type": "LineString",
    "coordinates": [
     [
      448572.31,
      4634450.65
     ],
     [
      448572.3,
      4634449.38
     ],
     [
      448572.32,
      4634448.11
     ],
     [
      448572.32,
      4634446.84
     ],
     [
      448572.35,
      4634445.57
     ],
     [
      448572.36,
      4634444.3
     ],
     [
      448572.36,
      4634443.03
     ],
     [
      448572.39,
      4634441.76
     ],
     [
      448572.39,
      4634440.49
     ],
     [
      448572.43,
      4634439.22
     ],
     [
      448572.43,
      4634437.95
     ],
     [
      448572.42,
      4634436.68
     ],
     [
      448572.45,
      4634435.41
     ],
     [
      448572.46,
      4634434.14
     ],
     [
      448572.46,
      4634432.87
     ],
     [
      448572.49,
      4634431.6
     ],
     [
      448572.49,
      4634430.34
     ],
     [
      448572.52,
      4634429.07
     ],
     [
      448572.51,
      4634427.8
     ],
     [
      448572.52,
      4634426.53
     ],
     [
      448572.78,
      4634425.26
     ],
     [
      448573.19,
      4634424.0
     ],
     [
      448573.58,
      4634422.73
     ],
     [
      448573.99,
      4634421.47
     ],
     [
      448574.38,
      4634420.21
     ],
     [
      448574.77,
      4634418.94
     ],
     [
      448575.16,
      4634417.68
     ],
     [
      448575.54,
      4634416.41
     ],
     [
      448575.94,
      4634415.15
     ],
     [
      448576.33,
      4634413.88
     ],
     [
      448576.72,
      4634412.62
     ],
     [
      448577.13,
      4634411.36
     ],
     [
      448577.49,
      4634410.09
     ],
     [
      448577.9,
      4634408.83
     ],
     [
      448578.29,
      4634407.56
     ],
     [
      448578.67,
      4634406.3
     ],
     [
      448579.07,
      4634405.04
     ],
     [
      448579.46,
      4634403.77
     ],
     [
      448579.85,
      4634402.51
     ],
     [
      448580.23,
      4634401.24
     ],
     [
      448580.64,
      4634399.98
     ],
     [
      448581.05,
      4634398.72
     ],
     [
      448581.44,
      4634397.45
     ],
     [
      448581.85,
      4634396.19
     ],
     [
      448582.25,
      4634394.93
     ],
     [
      448582.63,
      4634393.66
     ],
     [
      448582.98,
      4634392.4
     ],
     [
      448583.32,
      4634391.13
     ]
    ]
   }
  },
  {
   "type": "Feature",
   "id": "ic_edge_1911_sheet_28",
   "properties": {
    "kind": "lake_edge_observation",
    "name": "Lake edge, Sanborn 1911 sheet 28",
    "observed_date": "1911-01-01",
    "confidence": "attested",
    "confidence_note": "attested for 1911, the date of the sheet it is traced off; for 1904 it is an observation from the wrong date, and a bound",
    "sources": [
     "sanborn_1911_chicago_v3_sheet_28"
    ],
    "gcp_file": "data/traces/gcp/sanborn_1911_v3_sheet_28_gcps.json",
    "note": "the same pen line and wash, from near the top of the sheet until it stops"
   },
   "geometry": {
    "type": "LineString",
    "coordinates": [
     [
      448631.96,
      4634230.59
     ],
     [
      448632.36,
      4634229.33
     ],
     [
      448632.75,
      4634228.08
     ],
     [
      448633.16,
      4634226.82
     ],
     [
      448633.55,
      4634225.56
     ],
     [
      448633.92,
      4634224.31
     ],
     [
      448634.35,
      4634223.05
     ],
     [
      448634.72,
      4634221.79
     ],
     [
      448635.12,
      4634220.53
     ],
     [
      448635.5,
      4634219.28
     ],
     [
      448635.9,
      4634218.02
     ],
     [
      448636.29,
      4634216.76
     ],
     [
      448636.68,
      4634215.51
     ],
     [
      448637.08,
      4634214.25
     ],
     [
      448638.09,
      4634213.0
     ],
     [
      448640.11,
      4634211.77
     ],
     [
      448638.86,
      4634210.49
     ],
     [
      448638.66,
      4634209.22
     ],
     [
      448641.77,
      4634208.01
     ],
     [
      448639.24,
      4634206.7
     ],
     [
      448640.95,
      4634205.47
     ],
     [
      448640.22,
      4634204.19
     ],
     [
      448640.59,
      4634202.93
     ],
     [
      448640.98,
      4634201.68
     ],
     [
      448641.34,
      4634200.42
     ],
     [
      448641.75,
      4634199.16
     ],
     [
      448642.14,
      4634197.9
     ],
     [
      448642.54,
      4634196.65
     ],
     [
      448642.92,
      4634195.39
     ],
     [
      448643.32,
      4634194.13
     ],
     [
      448643.72,
      4634192.88
     ],
     [
      448644.11,
      4634191.62
     ],
     [
      448644.5,
      4634190.36
     ],
     [
      448644.89,
      4634189.1
     ],
     [
      448645.29,
      4634187.85
     ],
     [
      448645.68,
      4634186.59
     ],
     [
      448646.08,
      4634185.33
     ],
     [
      448646.48,
      4634184.07
     ],
     [
      448646.86,
      4634182.82
     ],
     [
      448647.26,
      4634181.56
     ],
     [
      448647.66,
      4634180.3
     ],
     [
      448648.05,
      4634179.05
     ],
     [
      448648.45,
      4634177.79
     ],
     [
      448648.85,
      4634176.53
     ],
     [
      448649.23,
      4634175.27
     ],
     [
      448649.64,
      4634174.02
     ],
     [
      448650.03,
      4634172.76
     ],
     [
      448650.43,
      4634171.5
     ],
     [
      448650.83,
      4634170.25
     ],
     [
      448651.25,
      4634168.99
     ],
     [
      448651.63,
      4634167.73
     ],
     [
      448652.03,
      4634166.48
     ],
     [
      448652.43,
      4634165.22
     ],
     [
      448652.83,
      4634163.96
     ],
     [
      448653.22,
      4634162.7
     ],
     [
      448653.61,
      4634161.45
     ],
     [
      448654.01,
      4634160.19
     ],
     [
      448654.42,
      4634158.93
     ],
     [
      448654.84,
      4634157.68
     ],
     [
      448655.2,
      4634156.42
     ],
     [
      448655.59,
      4634155.16
     ],
     [
      448655.99,
      4634153.9
     ],
     [
      448656.35,
      4634152.65
     ],
     [
      448656.75,
      4634151.39
     ],
     [
      448657.14,
      4634150.13
     ],
     [
      448657.53,
      4634148.87
     ],
     [
      448657.91,
      4634147.62
     ],
     [
      448658.31,
      4634146.36
     ],
     [
      448658.71,
      4634145.1
     ],
     [
      448659.1,
      4634143.85
     ],
     [
      448659.49,
      4634142.59
     ],
     [
      448659.88,
      4634141.33
     ],
     [
      448660.28,
      4634140.07
     ],
     [
      448660.69,
      4634138.82
     ],
     [
      448661.08,
      4634137.56
     ],
     [
      448661.47,
      4634136.3
     ],
     [
      448661.88,
      4634135.05
     ],
     [
      448662.27,
      4634133.79
     ],
     [
      448662.67,
      4634132.53
     ],
     [
      448663.07,
      4634131.27
     ],
     [
      448663.46,
      4634130.02
     ],
     [
      448663.88,
      4634128.76
     ],
     [
      448664.28,
      4634127.5
     ],
     [
      448664.69,
      4634126.25
     ],
     [
      448665.09,
      4634124.99
     ],
     [
      448665.49,
      4634123.73
     ],
     [
      448665.91,
      4634122.48
     ],
     [
      448666.31,
      4634121.22
     ],
     [
      448666.71,
      4634119.96
     ],
     [
      448667.12,
      4634118.7
     ],
     [
      448667.5,
      4634117.45
     ],
     [
      448667.94,
      4634116.19
     ],
     [
      448668.3,
      4634114.93
     ],
     [
      448668.7,
      4634113.68
     ],
     [
      448669.08,
      4634112.42
     ],
     [
      448669.48,
      4634111.16
     ],
     [
      448669.88,
      4634109.9
     ],
     [
      448670.26,
      4634108.65
     ]
    ]
   }
  },
  {
   "type": "Feature",
   "id": "ic_edge_1886_plate_10",
   "properties": {
    "kind": "lake_edge_observation",
    "name": "Lake edge, Robinson 1886 plate 10",
    "observed_date": "1886-01-01",
    "confidence": "attested",
    "confidence_note": "attested for 1886, the date of the sheet it is traced off; for 1904 it is an observation from the wrong date, and a bound",
    "sources": [
     "robinson_1886_chicago_plate_10"
    ],
    "gcp_file": "data/traces/gcp/robinson_1886_plate_10_gcps.json",
    "note": "the west limit of the plate's water-lining. It BOUNDS the 1904 edge from before; its planform, moved east, stands in for the 1911 bound in segments A and C"
   },
   "geometry": {
    "type": "LineString",
    "coordinates": [
     [
      448487.12,
      4634675.44
     ],
     [
      448486.38,
      4634671.98
     ],
     [
      448486.09,
      4634668.53
     ],
     [
      448487.07,
      4634665.06
     ],
     [
      448487.09,
      4634661.6
     ],
     [
      448487.07,
      4634658.14
     ],
     [
      448488.09,
      4634654.68
     ],
     [
      448489.12,
      4634651.21
     ],
     [
      448490.14,
      4634647.75
     ],
     [
      448491.5,
      4634644.28
     ],
     [
      448492.35,
      4634640.82
     ],
     [
      448494.59,
      4634637.35
     ],
     [
      448495.61,
      4634633.88
     ],
     [
      448496.63,
      4634630.42
     ],
     [
      448496.61,
      4634626.96
     ],
     [
      448497.63,
      4634623.49
     ],
     [
      448498.65,
      4634620.03
     ],
     [
      448499.67,
      4634616.57
     ],
     [
      448500.7,
      4634613.1
     ],
     [
      448501.72,
      4634609.64
     ],
     [
      448504.12,
      4634606.16
     ],
     [
      448504.97,
      4634602.7
     ],
     [
      448506.17,
      4634599.24
     ],
     [
      448506.15,
      4634595.78
     ],
     [
      448509.25,
      4634592.3
     ],
     [
      448510.44,
      4634588.84
     ],
     [
      448510.8,
      4634585.37
     ],
     [
      448511.62,
      4634581.91
     ],
     [
      448511.6,
      4634578.45
     ],
     [
      448512.62,
      4634574.99
     ],
     [
      448513.64,
      4634571.52
     ],
     [
      448514.66,
      4634568.06
     ],
     [
      448516.72,
      4634564.59
     ],
     [
      448518.78,
      4634561.12
     ],
     [
      448519.29,
      4634557.66
     ],
     [
      448519.79,
      4634554.19
     ],
     [
      448520.81,
      4634550.73
     ],
     [
      448520.79,
      4634547.27
     ],
     [
      448521.81,
      4634543.8
     ],
     [
      448522.83,
      4634540.34
     ],
     [
      448525.22,
      4634533.41
     ],
     [
      448529.84,
      4634529.93
     ],
     [
      448531.92,
      4634523.0
     ],
     [
      448533.67,
      4634519.53
     ],
     [
      448533.65,
      4634516.07
     ],
     [
      448534.78,
      4634512.6
     ],
     [
      448534.76,
      4634509.14
     ],
     [
      448534.78,
      4634505.68
     ],
     [
      448535.45,
      4634502.22
     ],
     [
      448536.13,
      4634498.76
     ],
     [
      448536.11,
      4634495.3
     ],
     [
      448537.13,
      4634491.83
     ],
     [
      448538.15,
      4634488.37
     ],
     [
      448539.18,
      4634484.91
     ],
     [
      448542.27,
      4634481.43
     ],
     [
      448544.19,
      4634477.96
     ],
     [
      448544.18,
      4634474.5
     ],
     [
      448544.99,
      4634471.04
     ],
     [
      448544.97,
      4634467.58
     ],
     [
      448545.99,
      4634464.11
     ],
     [
      448545.98,
      4634460.65
     ],
     [
      448547.0,
      4634457.19
     ],
     [
      448548.02,
      4634453.72
     ],
     [
      448553.06,
      4634450.24
     ],
     [
      448553.59,
      4634446.78
     ],
     [
      448553.8,
      4634432.94
     ],
     [
      448555.85,
      4634426.01
     ],
     [
      448556.17,
      4634422.55
     ],
     [
      448561.52,
      4634419.06
     ],
     [
      448561.68,
      4634415.6
     ],
     [
      448562.42,
      4634405.22
     ],
     [
      448562.65,
      4634401.76
     ],
     [
      448563.67,
      4634398.29
     ],
     [
      448564.69,
      4634394.83
     ],
     [
      448565.71,
      4634391.36
     ],
     [
      448566.56,
      4634387.9
     ],
     [
      448567.58,
      4634384.44
     ],
     [
      448568.43,
      4634380.97
     ],
     [
      448569.45,
      4634377.51
     ],
     [
      448570.47,
      4634374.04
     ],
     [
      448571.49,
      4634370.58
     ],
     [
      448573.55,
      4634367.11
     ],
     [
      448574.57,
      4634363.64
     ],
     [
      448575.6,
      4634360.18
     ],
     [
      448575.58,
      4634356.72
     ],
     [
      448576.6,
      4634353.25
     ],
     [
      448577.62,
      4634349.79
     ],
     [
      448578.64,
      4634346.33
     ],
     [
      448579.66,
      4634342.86
     ],
     [
      448581.53,
      4634335.93
     ],
     [
      448582.38,
      4634332.47
     ],
     [
      448585.48,
      4634328.99
     ],
     [
      448586.48,
      4634322.07
     ],
     [
      448587.33,
      4634318.61
     ],
     [
      448587.49,
      4634315.15
     ],
     [
      448588.51,
      4634311.68
     ],
     [
      448589.53,
      4634308.22
     ],
     [
      448590.55,
      4634304.75
     ],
     [
      448591.57,
      4634301.29
     ],
     [
      448592.59,
      4634297.82
     ],
     [
      448593.62,
      4634294.36
     ],
     [
      448596.68,
      4634283.96
     ],
     [
      448597.7,
      4634280.5
     ],
     [
      448599.62,
      4634277.03
     ],
     [
      448600.61,
      4634273.57
     ],
     [
      448602.04,
      4634270.1
     ],
     [
      448602.62,
      4634266.64
     ],
     [
      448603.5,
      4634263.17
     ],
     [
      448604.52,
      4634259.71
     ],
     [
      448604.5,
      4634256.25
     ],
     [
      448609.37,
      4634252.76
     ],
     [
      448610.46,
      4634249.3
     ],
     [
      448610.99,
      4634245.84
     ],
     [
      448610.98,
      4634242.38
     ],
     [
      448612.38,
      4634238.91
     ],
     [
      448612.53,
      4634235.45
     ],
     [
      448613.37,
      4634228.53
     ],
     [
      448613.49,
      4634225.07
     ],
     [
      448614.37,
      4634221.6
     ],
     [
      448615.39,
      4634218.14
     ],
     [
      448620.43,
      4634214.65
     ],
     [
      448620.41,
      4634211.19
     ],
     [
      448621.26,
      4634207.73
     ],
     [
      448621.4,
      4634200.81
     ],
     [
      448622.28,
      4634197.35
     ],
     [
      448622.37,
      4634193.89
     ],
     [
      448623.35,
      4634190.42
     ],
     [
      448624.38,
      4634186.96
     ],
     [
      448625.26,
      4634183.49
     ],
     [
      448626.28,
      4634180.03
     ],
     [
      448628.34,
      4634176.56
     ],
     [
      448628.84,
      4634173.1
     ],
     [
      448629.34,
      4634169.64
     ]
    ]
   }
  },
  {
   "type": "Feature",
   "id": "ic_edge_1886_1911_band",
   "properties": {
    "kind": "shoreline_source_disagreement_band",
    "state_id": "shore_1880s_ic_edge",
    "resolution": "scene_line_on_eastern_bound",
    "adopted_line": null,
    "adopted_midpoint": null,
    "eastern_bound": [
     "ic_edge_1911_sheet_20",
     "ic_edge_1911_sheet_28"
    ],
    "western_bound": "ic_edge_1886_plate_10",
    "sources": [
     "robinson_1886_chicago_plate_10",
     "sanborn_1911_chicago_v3_sheet_20",
     "sanborn_1911_chicago_v3_sheet_28"
    ],
    "spread_m": {
     "north_overlap": {
      "min_offset_m": 14.0,
      "mean_offset_m": 17.0,
      "max_offset_m": 18.7
     },
     "south_overlap": {
      "min_offset_m": 17.8,
      "mean_offset_m": 19.9,
      "max_offset_m": 21.2
     }
    },
    "note": "Everything between the 1886 and the 1911 water's edge over the two reaches where both draw it. The 1904 edge stood inside it. Kept as a band; not averaged."
   },
   "geometry": {
    "type": "MultiPolygon",
    "coordinates": [
     [
      [
       [
        448553.6,
        4634445.8
       ],
       [
        448553.8,
        4634435.8
       ],
       [
        448555.9,
        4634425.8
       ],
       [
        448561.7,
        4634415.8
       ],
       [
        448562.4,
        4634405.8
       ],
       [
        448564.4,
        4634395.8
       ],
       [
        448582.0,
        4634395.8
       ],
       [
        448578.8,
        4634405.8
       ],
       [
        448575.7,
        4634415.8
       ],
       [
        448572.7,
        4634425.8
       ],
       [
        448572.4,
        4634435.8
       ],
       [
        448572.3,
        4634445.8
       ],
       [
        448553.6,
        4634445.8
       ]
      ]
     ],
     [
      [
       [
        448613.5,
        4634225.8
       ],
       [
        448618.8,
        4634215.8
       ],
       [
        448621.3,
        4634205.8
       ],
       [
        448622.3,
        4634195.8
       ],
       [
        448624.7,
        4634185.8
       ],
       [
        448628.4,
        4634175.8
       ],
       [
        448649.1,
        4634175.8
       ],
       [
        448645.9,
        4634185.8
       ],
       [
        448642.8,
        4634195.8
       ],
       [
        448640.5,
        4634205.8
       ],
       [
        448636.6,
        4634215.8
       ],
       [
        448633.5,
        4634225.8
       ],
       [
        448613.5,
        4634225.8
       ]
      ]
     ]
    ]
   }
  }
 ]
}
